Brand,StoreName,Latitude,Longitude,Address
McDonald's,McDonald's Bukit Bintang,3.1468673,101.7108831,"120-120A Jalan Bukit Bintang, 55100, Kuala Lumpur, Malaysia"
McDonald's,McDonald's Bangsar,3.132994,101.6722976,"48, Jalan Telawi Lima, 59100, Bangsar Baru, Bangsar, Kuala Lumpur, Malaysia"
McDonald's,McDonald's SS 2,3.1183693,101.6204422,"No. 56 Jalan SS 2/61, 47300, Petaling Jaya, Selangor, Malaysia"
McDonald's,McDonald's Kepong,3.2135552,101.6328388,"No. 1 & 2 Jalan 54, Desa Jaya, 52100, Kepong, Selangor, Malaysia"
McDonald's,McDonald's Subang Parade,3.0814893,101.5851028,"LG 10 Subang Parade, No. 5 Jalan SS 16/1, 47500, Subang Jaya, Selangor, Malaysia"
McDonald's,McDonald's Greenlane DT,5.3848854,100.3053966,"Lot 2506/7, Section 6, Jalan Masjid Negeri, 11600, Penang, Pulau Pinang, Malaysia"
McDonald's,McDonald's Plaza Pelangi,1.4804916,103.7651672,"Lot 1.19, Plaza Pelangi, Jalan Tebrau/Jalan Kuning, 80400, Johor Bahru, Johor, Malaysia"
McDonald's,McDonald's Alpha Angle,3.2021198,101.7341702,"Lot G-13, Ground Floor, Alpha Angle Complex, Jalan R1, Wangsa Maju, 53000, Setapak, Kuala Lumpur, Malaysia"
McDonald's,McDonald's Kajang,2.9908649,101.7890383,"27 & 28, Jalan Abdul Aziz, 43000, Kajang, Selangor, Malaysia"
McDonald's,McDonald's Kuching,1.5533785,110.359503,"2nd Floor, Lot 268 - 269, Jalan Tuanku Abdul Rahman, 93100, Kuching, Sarawak, Malaysia"
McDonald's,McDonald's Leisure Mall Cheras,3.0911751,101.7335534,"LG 16, Lower Ground Floor, Leisure Mall, Taman Segar, No. 6, Jalan Cheras, 56100, Cheras, Kuala Lumpur, Malaysia"
McDonald's,McDonald's Taipan,3.048208,101.5857969,"No 4, Jalan USJ 10/1, Taipan USJ, Subang Jaya, 47620, USJ, Selangor, Malaysia"
McDonald's,McDonald's Sunshine Square,5.328861,100.2957722,"Level 1, Lot 1.01, Annexed Building, Sunshine Complex, 11950, Bayan Baru, Pulau Pinang, Malaysia"
McDonald's,McDonald's Selayang Mall,3.237487100000001,101.6441905,"Lot B.44, Selayang Mall Shopping Centre, Jalan SU 9, Taman Selayang Utama, 68100, Selayang, Selangor, Malaysia"
McDonald's,McDonald's Segamat,2.5147218,102.8514837,"Shop No. 111,112,113, Jalan Sia Har Yam, 85000, Segamat, Johor, Malaysia"
McDonald's,McDonald's Muar,2.0445951,102.5662887,"G-25, Wetex Parade, Jalan Ali, 84000, Muar, Johor, Malaysia"
McDonald's,McDonald's IOI Puchong Mall,3.0586477,101.6412382,"Lot 17, Ground Floor, IOI Mall, Batu 9 Jalan Puchong, Bandar Puchong Jaya, 47100, Puchong, Selangor, Malaysia"
McDonald's,McDonald's Desa Pandan,3.1469745,101.7369295,"Lot 2 & 2-1, Jalan 1/76D, Desa Pandan, 55100, Kuala Lumpur, Malaysia"
McDonald's,McDonald's City Plaza,6.1177759,100.3698807,"GF7, City Plaza, Jalan Tuanku Ibrahim, 05100, Alor Setar, Kedah, Malaysia"
McDonald's,McDonald's Central Square,5.6369764,100.4885066,"G16 - G19, Ground Floor, Kompleks Central Square, 23, Jalan Kampung Baru, 08000, Sungai Petani, Kedah, Malaysia"
McDonald's,McDonald's The Mines,3.0271527,101.7190232,"Lot 79, 2nd Floor, The Mines Shopping Fair, Jalan Dulang, Mines Resort City, 43300, Sri Kembangan, Selangor, Malaysia"
McDonald's,McDonald's Kluang,2.048435,103.4049445,"No. 1, Jalan Md. Lazim Saim, 86000, Kluang, Johor, Malaysia"
McDonald's,McDonald's Desa Universiti,5.351098,100.298136,"Lot 4B, 4C & 4D, Desa Universiti, Jalan Sg. Dua, 11700, Sungai Dua, Pulau Pinang, Malaysia"
McDonald's,McDonald's Permas Jaya,1.4955932,103.8143039,"No 2, Jalan Permas Jaya 10, Bandar Baru Permas Jaya, 80400, Johor Bahru, Johor, Malaysia"
McDonald's,McDonald's Bukit Jambul,5.333558,100.2913328,"3A-G-19, Kompleks Bukit Jambul, Jalan Rumbia, 11900, Pulau Pinang, Malaysia"
McDonald's,McDonald's Sunway Pyramid,3.0731724,101.6075559,"LL2.41, Sunway Pyramid Megamall, No. 3, Jalan PJS 11/15, Bandar Sunway, 46150, Selangor, Malaysia"
McDonald's,McDonald's Jalan Tun Perak,3.1491464,101.6969829,"38, Jalan Tun Perak, Ground & Mezzanine Floor, Wisma Teck Lee, 50050, Kuala Lumpur, Malaysia"
McDonald's,McDonald's Gombak,3.2006957,101.7008511,"M01 & M02, Kompleks Idaman, No. 40 - 50, Jalan 2/21D, Medan Idaman, Batu 5 1/4, Jalan Gombak, 53000, Kuala Lumpur, Malaysia"
McDonald's,McDonald's Kuching II,1.54267,110.3371961,"Ground Floor, Shop Lot No. 12 & 13, 3rd Mile, Jalan Tun Ahmad Zaidi Adruce, 93250, Kuching, Sarawak, Malaysia"
McDonald's,McDonald's Genting Sempah DT,3.3523246,101.791124,"Kawasan Rehat Genting-Sempah, KM 38.4 Lebuhraya KL-Karak, Genting Sempah, 28750, Bentong, Pahang, Malaysia"
McDonald's,McDonald's Mega Mall Kuantan,3.8157144,103.3301245,"Lot No. G-89 & 1-85 (Ground & First), Berjaya Megamall, Jalan Tun Ismail, Sri Dagangan, 25000, Kuantan, Pahang, Malaysia"
McDonald's,McDonald's Litrak DT,2.9815424,101.6364387,"Lay By 3, Hentian Sebelah Petaling Jaya, Lebuhraya Damansara Puchong, Bandar Sunway, PJS 9, 47600, Petaling Jaya, Selangor, Malaysia"
McDonald's,McDonald's Bandar Utama DT,3.1373737,101.6095597,"No. 5 Lebuh Bandar Utama, PJU 6, Bandar Utama, 47800, Petaling Jaya, Selangor, Malaysia"
McDonald's,McDonald's Mont Kiara,3.166001,101.6519883,"No. 1, Block D, Plaza Mont Kiara, Jalan Bukit Kiara, 50480, Bukit Kiara, Kuala Lumpur, Malaysia"
McDonald's,McDonald's Taman Buaya DT,2.269908,102.2944891,"Lot 4570 Taman Buaya Melaka, Mukim Bukit Katil, Daerah Melaka Tengah, 75320, Air Keroh, Melaka, Malaysia"
McDonald's,McDonald's Sri Gombak,3.237646,101.699194,"No. 1 Jalan SG. 1/6, Taman Sri Gombak, 68100, Batu Caves , Selangor, Malaysia"
McDonald's,McDonald's Jalan Tebrau DT,1.5520891,103.8013338,"Lot PTD 68950, Batu 7 1/2, Jalan Kota Tinggi, 81100, Johor Bahru, Johor, Malaysia"
McDonald's,McDonald's Petron Seremban-KL Highway DT,3.0642041,101.7034589,"8KM, KL-Seremban Highway, 57000, Seri Kembangan, Kuala Lumpur, Malaysia"
McDonald's,McDonald's Prangin Mall,5.4134929,100.3321148,"Lot 33-1-40, Prangin Mall, Jalan Dr Lim Chwee Leong, 10000, George Town, Pulau Pinang, Malaysia"
McDonald's,McDonald's Sunway Mentari,3.0749076,101.6121146,"No. 30 Sunway Mentari, Ground Floor Dataran Mentari, Jalan PJS 8/2, 46150, Petaling Jaya, Selangor, Malaysia"
McDonald's,McDonald's Teluk Cempedak DT,3.8121823,103.3630739,"Kawasan Rekreasi Teluk Cempedak, Jalan Teluk Cempedak, 25100, Kuantan, Pahang, Malaysia"
McDonald's,McDonald's Taman Sri Andalas,3.0161087,101.443895,"No. 2, Jalan Sri Sarawak 18, Taman Sri Andalas, 41200, Klang, Selangor, Malaysia"
McDonald's,McDonald's Section 3 Shah Alam DT,3.073281,101.518461,"No.4, Jalan RU 3/94, Sect 3, 40000, Shah Alam, Selangor, Malaysia"
McDonald's,McDonald's Subang DT,3.0790778,101.5861824,"No.1 Jalan SS15/3A, 47500, Subang Jaya, Selangor, Malaysia"
McDonald's,McDonald's Lotuss Puchong DT,3.0344552,101.6164672,"Lot No. 7 & 9, Ground Floor, Tesco Hypermarket, Jalan Bandar 3, Pusat Bandar Puchong, 47100, Puchong, Selangor, Malaysia"
McDonald's,McDonald's Senawang DT,2.7012645,101.9829697,"Lot 2726, Jalan Taman Komersil Senawang 1, Taman Komersil Senawang, 70450, Senawang, Negeri Sembilan, Malaysia"
McDonald's,McDonald's AEON Taman University,1.5431173,103.6290399,"LG08, Jusco Shopping Center, No. 4, Jalan Pendidikan, Taman Universiti, 81300, Skudai, Johor, Malaysia"
McDonald's,McDonald's Bandar Sri Damansara DT,3.1920845,101.6166547,"Lot PT21552 & PT21553, Mukim Sungai Buloh, Persiaran Perdana, 52200, Bandar Sri Damansara, Kuala Lumpur, Malaysia"
McDonald's,McDonald's Petronas Skudai DT,1.5008013,103.6958538,"Lot No. PTD13309 & PTD52136, KM11 Jalan Skudai, Mukim Tebrau, 81200, Johor Bahru, Johor, Malaysia"
McDonald's,McDonald's Pandan Mewah DT,3.1281168,101.762852,"Bangunan Restoran McDonald's, Jalan Mewah Utara, 68000, Ampang, Kuala Lumpur, Malaysia"
McDonald's,McDonald's Puchong Permai DT,3.0091742,101.5995801,"Lot 32426 Jalan Puchong Permai 2, Taman Puchong Permai, 47100, Puchong, Selangor, Malaysia"
McDonald's,McDonald's Setiawangsa DT,3.221696,101.687002,"Lot 16794 & 16795, Jalan 37/56, Taman Setiawangsa, 54200, Kuala Lumpur, Malaysia"
McDonald's,McDonald's Juru DT,5.33739,100.4311598,"No. 1689, Jalan Perusahaan, Highway Auto City, Kawasan Perusahaan 4, North-South Highway, Juru Interchange, MK 11, Seberang Perai Tengah Perai 4, 13600, Perai, Pulau Pinang."
McDonald's,McDonald's Berjaya Times Square,3.1423835,101.7096766,"Lot 05-93, 93A, No. 1, Jalan Imbi, 55100, Kuala Lumpur, Malaysia"
McDonald's,McDonald's Sri Kerteh DT,4.538693299999999,103.4280586,"Lot PT 7132, Mukim Kerteh, 24300, Daerah Kemaman, Terengganu, Malaysia"
McDonald's,McDonald's Kota Damansara DT,3.1604567,101.5741986,"Lot B, Jalan Cecawi 6/18A, Kota Damansara, 47810, Petaling Jaya, Selangor, Malaysia"
McDonald's,McDonald's Kota Kemuning DT,3.0051942,101.5376266,"No. 1, Jalan Anggerik Vanilla 31/94, Seksyen 31, Kota Kemuning, 40706, Shah Alam."
McDonald's,McDonald's Karamunsing,5.9668799,116.0720474,"Lot G - 21,23,25 and 26 part, Complex Karamunsing, Jalan Karamunsing, 88000, Kota Kinabalu, Sabah, Malaysia"
McDonald's,McDonald's Caltex Sunway Prai DT,5.4064035,100.3927392,"Lot Nos. 5730, 5731 & 5732, Jalan Jelawat, Mukim 1, Pusat Bandar Seberang Jaya, 13700, Prai, Pulau Pinang, Malaysia"
McDonald's,McDonald's Kuchai Lama DT,3.0870152,101.693757,"1/116B, Off Jalan Kuchai Lama, Kuchai Entrepreneurs Park, 58200, Kuala Lumpur, Malaysia"
McDonald's,McDonald's Taman Connaught DT,2.9664823,101.7284134,"Lot 18113, Jalan Cendikiawan, 55100, Mukim Petaling, Kuala Lumpur, Malaysia"
McDonald's,McDonald's Bukit Tinggi DT,3.0101189,101.4328026,"Lot 1, Persiaran Batu Nilam, Bandar Baru Bukit Tinggi, 41200, Klang, Selangor, Malaysia"
McDonald's,McDonald's Damansara Damai DT,3.1949498,101.591391,"Lot 36327, Jalan PJU 10/1, Damansara Damai, 47000, Sungai Buloh, Selangor, Malaysia"
McDonald's,McDonald's Pelangi Indah DT,1.5782418,103.7969315,"Petronas Petrol Station, Lot No.105615, Jalan Pesona, Taman Pelangi Indah, 81800, Johor Bahru, Johor, Malaysia"
McDonald's,McDonald's Rawang DT,3.2833351,101.4729892,"Lot PT 678, Jalan Pusat Bandar, 48000, Rawang, Selangor, Malaysia"
McDonald's,McDonald's Petronas TPM DT,3.0541529,101.7049776,"Petronas Petrol Station, Technology Park Malaysia, Seremban KL-Highway, 50700, Kuala Lumpur, Malaysia"
McDonald's,McDonald's Lotuss Penang,5.381556,100.3144452,"1-1-01 & 1-1-02, Lot A3 - 4, Jalan Udini, 11700, Pulau Pinang, Malaysia"
McDonald's,McDonald's The Curve,3.1577484,101.611405,"Lot No GZF-05 & GZF-06, Ground Floor, The Curve, Mutiara Damansara, 47800, Petaling Jaya, Selangor, Malaysia"
McDonald's,McDonald's Equine Park DT,2.9956774,101.6701928,"Lot No. 2, Persiaran Equine, Taman Equine, 43300, Seri Kembangan, Selangor, Malaysia"
McDonald's,McDonald's Ulu Kelang,3.2049453,101.7577469,"Lot 517, 276 & 277, Batu 7, Lebuhraya Lingkaran Tengah 2, MRR2, 53300, Mukim Ulu Kelang, Selangor, Malaysia"
McDonald's,McDonald's Desa Aman Puri DT,3.2082005,101.6147217,"Stesyen Minyak Shell, Lot No. PT 1021 & PT 1022, Jalan Aman, Persiaran Perdana, Desa Aman Puri, 52100, Kepong, Selangor, Malaysia"
McDonald's,McDonald's Tan Sri Yaacob,1.501336,103.6539389,"No. 2, Jalan Jati, Taman Nusa Bestari Jaya, 81300, Johor Bahru, Johor, Malaysia"
McDonald's,McDonald's Kulai DT,1.6376721,103.6266769,"Lot 1150, Jalan Kasturi 36/41, Indahpura, 81000, Kulai, Johor Bahru, Johor, Malaysia"
McDonald's,McDonald's AEON Seremban 2,2.700705,101.9122163,"Lot G43, Ground Floor, Jusco Seremban 2, Shopping Centre, 112 Persiaran S2, Phase B1, Seremban 2, 70300, Seremban, Negeri Sembilan, Malaysia"
McDonald's,McDonald's UTM Skudai DT,1.5641073,103.6142892,"Lot PT 61054, Batu 11, Jalan Pontian, 81300, Skudai, Johor, Malaysia"
McDonald's,McDonald's NKVE DT,3.095268,101.535363,"Lot 15385 Seksyen PJU 1A, KM 15.4 Arah Utara, Lebuh Baru Lembah Kelang, 40150, Petaling Jaya, Selangor, Malaysia"
McDonald's,McDonald's Petronas Ampang DT,3.156748,101.7520628,"D/A Petronas Servis Stesen, Jalan Kolam Ayer Lama, Lot 36904 (PT 27423), Taman Dato' Ahmad Razali, 68000, Ampang, Selangor, Malaysia"
McDonald's,McDonald's Dataran Pahlawan,2.1899761,102.2504291,"Lot A02, Dataran Pahlawan Melaka Megamall, Jalan Merdeka, 75000, Melaka, Malaysia"
McDonald's,McDonald's Taman Sutera DT,1.5230131,103.6788701,"Lot PT 135893, Jalan Roda Utama, 81300, Skudai, Johor Bahru, Johor, Malaysia"
McDonald's,McDonald's Queensbay Mall,5.333048799999999,100.3065283,"LG-73, Lower Ground Floor, Queensbay Mall, 100, Persiaran Bayan Indah, 11900, Pulau Pinang, Malaysia"
McDonald's,McDonald's Bandar Tun Hussein Onn DT,3.05235,101.7654245,"Lot PT 18150 & PT 18151, Jalan Suasana 2/2, Bandar Tun Hussein Onn, 43200, Cheras, Selangor, Malaysia"
McDonald's,McDonald's Jusco Balakong,2.9952482,101.6746319,"Lot G51, Ground Floor, Jusco Balakong Shopping Centre, 43200, Balakong, Selangor, Malaysia"
McDonald's,McDonald's Sri Manjung DT,4.2116964,100.6814072,"Lot 114, Jalan Lumut, Setiawangsa, 32010, Sri Manjung, Perak, Malaysia"
McDonald's,McDonald's Jalan Gopeng DT,4.5166836,101.1365903,"PN684, Mukim Ulu Kinta, Jalan Gopeng, 31350, Ipoh, Perak, Malaysia"
McDonald's,McDonald's Section 22 Shah Alam DT,3.040368,101.5475029,"No.2, Jalan 22/6, Seksyen 22, 40300, Shah Alam, Selangor, Malaysia"
McDonald's,McDonald's Petronas Melati DT,3.221806,101.725659,"Lot 3644 HS (D) 70344 &, Lot PT 8081 HS (D) 107241, Taman Melati, Mukim Setapak, 53100, Kuala Lumpur, Malaysia"
McDonald's,McDonald's Banting DT,2.8129823,101.5081132,"No. 2 Jalan Cemerlang 4, 42700 Banting, Selangor, Malaysia"
McDonald's,McDonald's AEON Bukit Tinggi,2.9951054,101.4439103,"AEON Bukit Tinggi Shopping Centre, No. 1, Persiaran Batu Nilam 1/KS6, Bandar Bukit Tinggi 2, 41200, Klang, Selangor, Malaysia"
McDonald's,McDonald's Caltex Farlim DT,5.387483,100.276876,"Caltex Farlim Petrol station, Lot No.9435, Mukim 13, North East District, 11900, Pulau Pinang, Malaysia"
McDonald's,McDonald's Melaka Sentral,2.221025,102.249067,"Plaza Melaka Sentral, Lot No. 59, Zone D, Ground Floor, 75000, Melaka, Malaysia"
McDonald's,McDonald's 1 Borneo Mall,6.0353914,116.1294805,"Concourse Floor, 1 Borneo Mall, Lot No. C215 - C218 & Part of D219, 88871, Kota Kinabalu, Sabah, Malaysia"
McDonald's,McDonald's Rahman Putra DT,3.2243457,101.5548983,"No. 4, Lot 33428, Jalan BRP 3/3, Bukit Rahman Putra, Seksyen U20, 40160, Shah Alam, Selangor, Malaysia"
McDonald's,McDonald's Shell Jalan Cheras DT,3.1067254,101.7302389,"Lot PT 7430, HSD 111856, KM5.5, Jalan Cheras, 56000, Cheras, Kuala Lumpur, Malaysia"
McDonald's,McDonald's KK Airport,5.9243739,116.0503624,"Lot No. L3 - L14, Public Concourse, Departure Level Terminal 1, Kota Kinabalu International Airport, 88100, Kota Kinabalu, Sabah, Malaysia"
McDonald's,McDonald's Labuan Airport,5.2946632,115.2492716,"Lot No. L1L04 - L1L06, Labuan Airport, Arrival Hall 1, Terminal Building, 80569, WP Labuan, Malaysia"
McDonald's,McDonald's Sri Alam Masai DT,1.5027863,103.8742327,"Lot PTD 174172, Jalan Seri Alam, Bandar Seri Alam, 81750, Masai, Johor, Malaysia"
McDonald's,McDonald's Bandar Baru Bangi DT,2.9618155,101.7580357,"PTD 68518, Persiaran Bangi, 43650, Bandar Baru Bangi, Selangor, Malaysia"
McDonald's,McDonald's Batu Pahat DT,1.8636336,102.949064,"Lot PTD 48029, Taman Flora Utama, Jalan Tan Swee Hoe, 83000, Batu Pahat, Johor, Malaysia"
McDonald's,McDonald's Teluk Intan DT,4.0173686,101.0275118,"Lot 5017 McDonald's, Jalan Changkat Jong, 36000, Teluk Intan, Perak, Malaysia"
McDonald's,McDonald's Taiping Sentral,4.8658188,100.7312078,"Lot G-21 and G-22, Ground Floor, Taiping Sentral, No 36, Jalan Istana Larut, 34000, Taiping, Perak, Malaysia"
McDonald's,McDonald's Klang Sentral,3.0673221,101.4295725,"No.2, Jalan Klang Sentral/KU05, Bukit Raja, Meru, 41050, Klang, Selangor, Malaysia"
McDonald's,McDonald's Petronas KLIA DT,2.760685,101.7065323,"Lot PT 3906, Jalan Terminal KLIA (Outbound), 64000, Sepang, Selangor, Malaysia"
McDonald's,McDonald's Prima Saujana Kajang DT,3.007575,101.8083859,"Lot PT 52317, Prima Saujana, Mukim Kajang, 43000, Kajang, Selangor, Malaysia"
McDonald's,McDonald's Melaka Mall DT,2.2724771,102.285267,"Sebahagian Lot PT 3368, Leboh Ayeh Keroh, Mukim Bukit Baru, 75450, Melaka, Malaysia"
McDonald's,McDonald's Dataran Pahlawan 2,2.1899761,102.2504291,"FG-15 & FG-16, Ground Floor, Dataran Pahlawan Melaka Megamall, Jalan Merdeka, 75000, Melaka, Malaysia"
McDonald's,McDonald's KB Mall,6.117460599999999,102.2401375,"Lot No. 29A & 30, Ground Floor, KB Mall, Jalan Hamzah, 15050, Kota Bharu, Kelantan, Malaysia"
McDonald's,McDonald's Puchong Gateway DT,3.0869965,101.6131487,"Lot No. 48733, Mukim Petaling LDP Puchong Gateway, 47100, Puchong, Selangor, Malaysia"
McDonald's,McDonald's Bandar Perda DT,5.366535,100.4341489,"PT 860, HS (D) 1217, Bandar Perda, Mukim 6, Daerah Seberang Prai Tengah, 14000, Pulau Pinang, Malaysia"
McDonald's,McDonald's Pasir Gudang DT,1.4735406,103.9079803,"Lot PT 69990, HSD 124966, Jalan Bandar Mukim Plentong, Bandar Baru Pasir Gudang, 81700 Pasir Gudang, Johor, Malaysia"
McDonald's,McDonald's Kota Tinggi,1.7276702,103.9036109,"Block A, Lot 2 Aras 1, Aras 2 & Lot 1 Aras 1, Jalan Niaga 11, Mukim Kota Tinggi, Daerah Kota Tinggi, 81900, Kota Tinggi, Johor, Malaysia"
McDonald's,McDonald's Sunway City Ipoh DT,4.619781,101.1467408,"Lot 303521, Sunway City, Mukim Hulu Kinta, Daerah Kinta, 31150 Ulu Kinta, Ipoh, Perak, Malaysia"
McDonald's,McDonald's Putra Nilai DT,2.8225958,101.7938111,"PT 1134, Persiaran Pusat Bandar, 71800 Nilai, Negeri Sembilan, Malaysia"
McDonald's,McDonald's Petronas MRR2 Kepong DT,3.2229422,101.6392942,"Lot 25747, Lebuh Raya Selayang, Kepong Lebuh Raya, Lingkaran Tengah 2 (MRR 2), 52100, Kepong, Kuala Lumpur, Malaysia"
McDonald's,McDonald's Bukit Indah DT,1.4815896,103.6577533,"No. 57, Jalan Indah 15/2, Bukit Indah, 81200, Johor Bahru, Johor, Malaysia"
McDonald's,McDonald's Pengkalan DT,4.5419429,101.0703843,"No. 686, Jalan Pasir Puteh, Pengkalan Pegoh, 31500, Ipoh, Perak, Malaysia"
McDonald's,McDonald's Puncak Alam DT,3.2185519,101.4282369,"Lot 10655, Jalan Utama, Bandar Puncak Alam, 45010, Kuala Selangor, Selangor, Malaysia"
McDonald's,McDonald's Kampar DT,4.3258942,101.143947,"Sebahagian Lot No. 126028, Jalan Batu Sinar, Taman Bandar Baru Kampar, 31900, Kampar, Perak, Malaysia"
McDonald's,McDonald's 1 Utama,3.1480679,101.6164417,"Lot LG221, Lower Ground Floor Promenade, 1 Utama Shopping Centre, Persiaran Bandar Utama, Bandar Utama, 47800, Petaling Jaya, Selangor, Malaysia"
McDonald's,McDonald's Sibu,2.2883267,111.8312675,"Shop Lot No. 2 (Ground & 1st Floor) and Shop Lot No. 4 (Ground Floor), Causeway Road, 96007, Sibu, Sarawak, Malaysia"
McDonald's,McDonald's Miri Permyjaya,4.4810824,114.011922,"Lot 5993, Block 11, K.B.L.D. Desa Indah 3, Jalan Tudan, Bandar Baru Permyjaya, 98000, Miri, Sarawak, Malaysia"
McDonald's,McDonald's Dungun,4.7555452,103.4133742,"Ground Floor & 1st Floor, Jalan Baru Pak Sabah, Mukim Kuala Dungun, 23000, Dungun, Terengganu, Malaysia"
McDonald's,McDonald's Kulim DT,5.3849522,100.5460793,"No. 28, Jalan KLC 1, Kulim Landmark Central, 09000 Kedah, Malaysia"
McDonald's,McDonald's Ulu Tiram DT,1.5758101,103.8042382,"Sebahagian Lot PTD 19827, Mukim Tebrau, Ulu Tiram, 81800, Johor Bahru, Johor, Malaysia"
McDonald's,McDonald's Caltex Bandar Puteri Klang DT,2.9885251,101.4694733,"Lot 133826, Lebuh Sanggul 1/KS7, Bandar Puteri, 41200, Klang, Selangor, Malaysia"
McDonald's,McDonald's Petronas Batu Ferringhi DT,5.4796341,100.2612737,"Lot 697 & Lot 764, Jalan Batu Ferringi, Seksyen 2, Bandar Baru Ferringi, Daerah Timur Laut, 11100, Pulau Pinang, Malaysia"
McDonald's,McDonald's Kuala Selangor DT,3.32965,101.26132,"Lot 640, Teluk Piah, Mukim Kuala Selangor, 45000, Kuala Selangor, Selangor, Malaysia"
McDonald's,McDonald's Mutiara Damansara DT,3.1581749,101.6137018,"Lot 69683, Jalan PJU 7/5, Mutiara Damansara, Mukim Sungai Buloh, Daerah Petaling, 45000, Selangor, Malaysia"
McDonald's,McDonald's Semenyih DT,2.9020263,101.8385534,"Lot 1809, Batu 22, Jalan Beranang, Mukim Semenyih, Daerah Hulu Langat, 43500, Selangor"
McDonald's,McDonald's Parit Raja DT,1.8322782,103.0241726,"Lot 20398 HS (D) 59406, MK Sri Gading, 83300, Batu Pahat, Johor, Malaysia"
McDonald's,McDonald's Lotuss Tanjung Pinang,5.458942,100.308805,"Lot G10, 11, 12, 13 & 14, Tesco Tanjung Pinang, No 1, Jalan Seri Tanjung Pinang, 10470, Tanjung Tokong, Pulau Pinang, Malaysia"
McDonald's,McDonald's Lotus's Seremban 2,2.7115696,101.9153112,"No 1, Jalan Haruan 2, 70300, Seremban, Negeri Sembilan, Malaysia"
McDonald's,McDonald's Mount Austin DT,1.5608773,103.7802651,"Lot 110034, Jalan Austin Heights 3, Taman Mount Austin, Mukim Tebrau, 81100, Johor Bahru, Johor, Malaysia"
McDonald's,McDonald's Setia Tropika DT,1.5482382,103.7136062,"Lot 141190, Jalan Setia Tropika 1/21, Taman Setia Tropika, Mukim Tebrau, 81100, Johor Bahru, Johor, Malaysia"
McDonald's,McDonald's Bandar Utama Cheng,2.280591,102.215466,"No. 75, Jalan Inang 3, Taman Paya Rumput Utama, 76450, Bandar Cheng, Melaka, Malaysia"
McDonald's,McDonald's Batu Berendam DT,2.2549007,102.2490697,"Lot PT 13668, Mukim Batu Berendam, Melaka Tengah, 75350, Hang Tuah Jaya, Melaka, Malaysia"
McDonald's,McDonald's Kota Warisan DT,2.8758846,101.673029,"Pintasan Dengkil By Pass (B29), 43900, Sepang, Selangor, Malaysia"
McDonald's,McDonald's Citta Mall,3.1121867,101.5790712,"G-43, Citta Mall, No 1, Jalan PJU 1A/48, PJU 1A, Ara Damansara, 47301, Petaling Jaya, Selangor, Malaysia"
McDonald's,McDonald's Petronas Miri DT,4.4136606,114.0061152,"Lot 1050(A), Jalan Bulan Sabit, Block 7, MCLD, 98000, Miri, Sarawak, Malaysia"
McDonald's,McDonald's Simpang DT,4.7139964,100.7194236,"No. 97 Jalan Besar, Jalan Simpang, 34000, Taiping, Perak, Malaysia"
McDonald's,McDonald's Jalan Kuala Kangsar DT,4.6470094,101.1013272,"Mukim Hulu Kinta, Daerah Kinta, Jalan Kuala Kangsar, 31400, Ipoh, Perak, Malaysia"
McDonald's,McDonald's Sandakan DT,5.865294400000001,118.0570621,"Sebahagian CL 075477584, Batu 6, Jalan Utara, 90000, Sandakan, Sabah, Malaysia"
McDonald's,McDonald's PD Waterfront DT,2.560268,101.8116882,"No. 27, Jalan Persiaran, PD Waterfront, 71010, Port Dickson, Negeri Sembilan, Malaysia"
McDonald's,McDonald's Jln Apas Tawau DT,4.2579064,117.9443048,"CL. 105509868 At Mile 4, Jalan Apas, 91000, Tawau, Sabah, Malaysia"
McDonald's,McDonald's M2 Mall,3.1580453,101.6958556,"Lot 1, Level1, BUSANA, Menara MARA, No. 232, Jalan Tuanku Abdul Rahman, 50100, Kuala Lumpur , Malaysia"
McDonald's,McDonald's Shell Jalan Sulaman DT,6.1007527,116.1739241,"Off Jalan Sulaman Highway, 88000, Kota Kinabalu, Sabah, Malaysia"
McDonald's,McDonald's Setia City Mall,3.108951,101.4613414,"Unit No. LG-40, Setia City Mall, No. 7, Persiaran Setia Dagang, Bandar Setia Alam, Seksyen U13, 40170, Shah Alam, Selangor, Malaysia"
McDonald's,McDonald's Pontian DT,1.4783928,103.3900628,"Lot 13182, Jalan Delima, Mukim Bandar Pontian Kecil, 82000, Pontian, Johor, Malaysia"
McDonald's,McDonald's Klebang DT,4.685967,101.1208671,"PT238632, Persiaran Klebang Putra, Taman Klebang Putra, 31200 Chemor, Perak, Malaysia"
McDonald's,McDonald's Persiaran Raja Muda Musa DT,3.0180602,101.4154344,"Lot PT 3358, Seksyen 31, Persiaran Raja Muda Musa (KS05), Bandar Klang, 41200, Selangor."
McDonald's,McDonald's Underwater World Langkawi,6.2955916,99.72281319999999,"Pantai Cenang, 07000, Langkawi, Kedah, Malaysia"
McDonald's,McDonald's Indera Mahkota DT,3.820763,103.296973,"Lot PT 96403, Bandar Indera Mahkota, Mukim Kuala Kuantan, 25200, Kuantan, Pahang, Malaysia"
McDonald's,McDonald's Seri Iskandar DT,4.3590389,100.9849395,"Plot 531, Bandar Seri Iskandar, Mukim Bota, 32600, Perak Tengah, Perak, Malaysia"
McDonald's,McDonald's MITC Melaka DT,44.5379358,1.6760691,"Lot 15702, Mukim Bukit Katil, Daerah Melaka Tengah, Hang Tuah Jaya, 75450, Melaka, Malaysia"
McDonald's,McDonald's Taiping Lake Garden DT,4.8576918,100.7484311,"Lot 3410 (PT 1238), Jalan Sultan Mansor, Daerah Larut Dan Matang, 34000, Taiping, Perak."
McDonald's,McDonald's Harbour Mall Sandakan,5.838935999999999,118.1194017,"Lot G09, G10 & G12A, Harbour Mall Sandakan, Sandakan Harbour Square, 90000, Sandakan, Sabah, Malaysia"
McDonald's,McDonald's Nong Chik DT,1.4759879,103.7367283,"Sebahagian Lot PT 22062, Jalan Kolam Air, Bandar Johor Bahru, 80100, Johor Bahru, Johor, Malaysia"
McDonald's,McDonald's Pengkalan Chepa DT,4.3107299,101.1535246,"Jalan Bendahara 1/36, Taman Bendahara, Pengkalan Chepa, 16100, Kota Baru, Kelantan."
McDonald's,McDonald's Pekan DT,3.541894,103.387427,"Sebahagian Tanah Taman Tasik Sultan Abu Bakar, 26600, Pekan Bandar DiRaja, Pekan, Pahang, Malaysia"
McDonald's,McDonald's Kota Emerald DT,3.3605216,101.5361726,"Sebahagian Lot 1246, Mukim Rawang, Daerah Gombak, 48000, Rawang, Selangor, Malaysia"
McDonald's,McDonald's Tesco Alma DT,5.3220832,100.4767697,"Sebahagian Lot 17493, Jalan Rozhan, Pusat Perniagaan Seri Impian, 14000, Bukit Mertajam, Pulau Pinang, Malaysia"
McDonald's,McDonald's Bertam DT,5.5423819,100.4508956,"Sebahagian Lot 20016, Mukim 06, Seberang Perai Utara, 13200, Pulau Pinang, Malaysia"
McDonald's,McDonald's Triang DT,3.2777565,102.644587,"Sebahagian PT 25213, Mukim Triang, Daerah Bera, 28300, Temerloh, Pahang, Malaysia"
McDonald's,McDonald's Temerloh DT,3.459055,102.4641834,"Sebahagian Lot 1304 Sek. 05 (GM 7677), Mukim Perak, 28000, Temerloh, Pahang, Malaysia"
McDonald's,McDonald's TTDI (Taman Tun Dr Ismail),3.1403759,101.628808,"No. 2, 2A & B, Jalan Tun Mohd Fuad 2, Taman Tun Dr Ismail, 60000, Kuala Lumpur, Malaysia"
McDonald's,McDonald's Bintulu DT,3.1933873,113.0716972,"Lots 119 & 120, Block 32, Kemena Land District, Jalan Tun Hussein Onn, 97000, Bintulu, Sarawak, Malaysia"
McDonald's,McDonald's Plaza Merdeka,1.5585742,110.344017,"Lot Nos. G-12, G-13, Part Of L1-15 and Alfresco Area, Plaza Merdeka, No 88, Pearl Street, 93000, Kuching, Sarawak, Malaysia"
McDonald's,McDonald's Kluang DT,1.8851785,103.1509991,"265 & 343, GM. 3095 Dan GM. 3096, Jalan Kluang - Air Hitam, 86000, Kluang, Johor, Malaysia"
McDonald's,McDonald's Mutiara Rini DT,1.524528,103.6402729,"Sebahagian Lot 2144714, Lot 2 (PTD 176566), Taman Mutiara Rini, Mukim Pulai, 86000 Johor Bahru, Johor, Malaysia"
McDonald's,McDonald's Meru Raya DT,4.671444,101.0765167,"Lot 82, Jalan Meru Bestari A2, Diatas Sebahagian Zon 5, Bandar Meru Raya, Mukim Hulu Kinta, 30020, Kinta, Perak, Malaysia"
McDonald's,McDonald's Forest Height DT,2.7231688,101.9629781,"Sebahagian Lot 33369, Mukim Ampangan Seremban, 70450, Seremban, Negeri Sembilan, Malaysia"
McDonald's,McDonald's Petron Section 7,3.065637,101.490972,"No. 5, Persiaran Kayangan Seksyen 7 (Fasa 3C), 40000, Shah Alam, Selangor, Malaysia"
McDonald's,McDonald's Satok Kuching,1.553656,110.334067,"Lot 180 & 181, Ground & 1st Floor, Bangunan Haji Abdul Rasit, Jalan Satok, 93400, Kuching, Sarawak, Malaysia"
McDonald's,McDonald's Alor Mengkudu DT,6.096190399999999,100.3761345,"No 8-A, Jalan Alor Mengkudu, 05400, Alor Setar, Kedah, Malaysia"
McDonald's,McDonald's Batu Caves DT,3.233091,101.6977838,"Lot 52613, Taman Samudera, 53000, Batu Caves, Selangor, Malaysia"
McDonald's,McDonald's Sri Manjung 2 DT,4.195868,100.664788,"Sebahagian Lot 13108, Mukim Lumut, Daerah Manjung, 32010, Sri Manjung, Perak, Malaysia"
McDonald's,McDonald's Gong Badak DT,5.375916,103.0841383,"Lot No. 9154 GM4340, Jalan Tengku Ampuan Intan Zaharah, Mukim Kuala Nerus, 21300, Kuala Terengganu, Terengganu, Malaysia"
McDonald's,McDonald's Giant Jalan Kebun DT,3.0141463,101.4871963,"PT 128899, Batu 3 1/2, Jalan Kebun, Taman Maznah, 41000, Bandar Klang, Daerah Klang, Selangor, Malaysia"
McDonald's,McDonald's Taman Daya DT,1.5312405,103.7565527,"Lot PTD 110501, Jalan Nipah 2, Taman Daya, 81100, Mukim Tebrau, Johor Bahru, Johor, Malaysia"
McDonald's,McDonald's Sri Serdang Prima,3.0084622,101.7143974,"No. 20-1, 20-2 & 20-3, Jalan 18/33A, Taman Sri Serdang, 43300, Seri Kembangan, Selangor, Malaysia"
McDonald's,McDonald's Kok Lanas DT,5.927296,102.2425387,"Lot 282, Mukim Mahang West, Daerah Ketereh, Jajahan Kota Bahru, 16450, Kelantan, Malaysia"
McDonald's,McDonald's Tabuan Jaya DT,1.5162825,110.3850886,"Lot 16843 (Lots 4581, 9210 and 9212), Block 11, MTLD Jalan Canna, 93150, Kuching, Sarawak, Malaysia"
McDonald's,McDonald's Bandar Puteri Puchong DT,3.0210122,101.6245823,"No. G-6, No. 1-6 & No. 2-6, Jalan Puteri 7/13A, Bandar Puteri, 47100, Puchong, Selangor, Malaysia"
McDonald's,McDonald's Seremban DT,2.715371,101.90668,"Lot 24158 (PT2) & Lot 24159 (PT3), Pekan Bukit Kepayang, Mukim Rasah, 70200, Seremban, Negeri Sembilan, Malaysia"
McDonald's,McDonald's Jerantut DT,3.932939599999999,102.3551291,"Lot 15495, Mukim Pedah, Daerah Jerantut, 27000, Jerantut, Pahang, Malaysia"
McDonald's,"McDonald's MJC Batu Kawa DT, Kuching",1.5137532,110.3094404,"Lot 3421 (Parent Lot 2433), Block 217 KNLD, Batu Kawa New Township, 93250, Kuching, Sarawak, Malaysia"
McDonald's,McDonald's Kota Laksamana DT,2.2103401,102.2165301,"Lot PT188, Pekan Klebang Sek. IV, Daerah Melaka Tengah, Bandaraya Melaka, 75200, Melaka, Malaysia"
McDonald's,McDonald's BHP Taman Melawati DT,3.2094279,101.6295886,"Lot PT 8669, Jalan Lingkaran Tengah II, 53100, Kuala Lumpur, Malaysia"
McDonald's,McDonald's Birch House DT,5.4127465,100.3260491,"No. 73, Jalan Dato' Keramat, 10150, Georgetown, Pulau Pinang, Malaysia"
McDonald's,McDonald's Main Place,3.02632,101.5811466,"Lot No GF-36, Ground Floor, Main Place Mall, Jalan USJ 21/10, 47630, Subang Jaya, Selangor, Malaysia"
McDonald's,McDonald's NU Sentral,3.1314287,101.6833038,"Unit No. L4. 02 & 03, Level 4, 1 Sentral, Jalan Travers, 50470, Kuala Lumpur, Malaysia"
McDonald's,McDonald's Bandar Sri Pinang DT,5.350615899999999,100.2286649,"No 2, Lebuh Sungai Pinang 4, 11600, Pulau Pinang, Malaysia"
McDonald's,McDonald's Metro City DT,1.5639894,110.3055619,"Lot 14212 (Plot 79), Metro City New Township, Section 65, Kuching Town Land District, Jalan Matang, 93050, Kuching, Sarawak, Malaysia"
McDonald's,McDonald's Kangar DT,6.4352982,100.2031492,"Jalan Kampung Bakau, 01000, Kangar, Perlis, Malaysia"
McDonald's,McDonald's Seremban 2 DT,2.6920673,101.9055274,"Lot PT 560, Bandar Seremban Utama, Seremban 2, 70300, Seremban, Negeri Sembilan, Malaysia"
McDonald's,McDonald's Sri Petaling,3.0688873,101.6917905,"No 63 & 63-1, Jalan Radin Tengah, Bandar Baru Sri Petaling, 57000, Kuala Lumpur, Malaysia"
McDonald's,McDonald's IOI City Mall,2.970663,101.7136681,"Lot Nos. 57 & 58, IOI City Mall, IOI Resort, 62502, Putrajaya, Selangor, Malaysia"
McDonald's,McDonald's Muar DT,2.0476541,102.5956804,"Lot 3070, Jalan Bakri, Mukim Bandar Maharani, 84000, Muar, Johor, Malaysia"
McDonald's,McDonald's Kajang Perdana DT,2.9221098,101.7329167,"18, Mukim Semenyih, Daerah Ulu Langat, 43000, Kajang, Selangor, Malaysia"
McDonald's,McDonald's Bandar Sri Putra DT,2.887854,101.7920596,"Sebahagian Lot 38833, Jalan Seri Putra 1/9, Bandar Seri Putra, 43000, Kajang, Selangor, Malaysia"
McDonald's,McDonald's Jalan Gambang DT,3.7536657,103.1982072,"Lot 121596, Jalan Kuantan Gambang, Kuala Kuantan, 25150, Kuantan, Pahang, Malaysia"
McDonald's,McDonald's Sabak Bernam DT,3.6764401,100.9878882,"Lot 24040 Pekan Sungai Besar, Mukim Panchang Bedena, 45300, Sabak Bernam, Selangor, Malaysia"
McDonald's,McDonald's Kota Masai DT,1.4847707,103.9526562,"Lot 85821, Taman Kota Masai, Plentong, 81700, Pasir Gudang, Johor, Malaysia"
McDonald's,McDonald's Caltex Denai Alam DT,3.159363,101.513058,"Lot No. 3, Persiaran Elektron, Denai Alam, Section U16, 40160, Shah Alam, Selangor, Malaysia"
McDonald's,McDonald's Mid Valley 3,3.1175628,101.6774073,"Tingkat 3, Mid Valley Megamall, Lingkaran Syed Putra, 59200, Kuala Lumpur, Malaysia"
McDonald's,McDonald's Aman Central,6.124969699999999,100.3664572,"Unit 1-39A, 58, 59, 60, 67 & 68, First Floor, Aman Central, 05100, Alor Setar, Kedah, Malaysia"
McDonald's,McDonald's Caltex Jalan Tengah DT,5.319753,100.284442,"No. 23-A, Jalan Tengah, Bayan Baru, 11950, Bayan Lepas, Pulau Pinang, Malaysia"
McDonald's,McDonald's Taman Ungku Tun Aminah DT,1.519901,103.6586369,"Lot 13576, Taman Ungku Aminah, Mukim Pulai, 81300, Johor Bahru, Johor, Malaysia"
McDonald's,McDonald's Kota Bahru DT,6.0742319,102.2386043,"Lot 2994, Jalan Kuala Krai, Wakaf Che Yeh, 15050, Kota Bahru, Kelantan, Malaysia"
McDonald's,McDonald's KL Sentral,3.1344015,101.6864197,"Lot 14, 15, & 16, First Floor, Kuala Lumpur Sentral Station, 50470, Kuala Lumpur, Malaysia"
McDonald's,McDonald's Mentakab Star Mall,3.4705676,102.3319397,"F & B 1, Mentakab Star Mall, No 1, Jalan Star City 1, Star City, 28400, Mentakab, Pahang, Malaysia"
McDonald's,McDonald's Jalan Sultan Azlan Shah DT,4.617465699999999,101.1169475,"Lot 197129, Plot 2, Jalan Medan Ipoh, 1A Medan Ipoh Bistari, 31400, Ipoh, Perak, Malaysia"
McDonald's,McDonald's Jalan Sulaman DT 2 KK,6.0571785,116.1513155,"Lot 2 Of NT013108275, Along Sulaman Road, 88450, Kota Kinabalu, Sabah, Malaysia"
McDonald's,McDonald's Api-Api (Kota Kinabalu),5.9780861,116.0711512,"Lot No. 1/G1 & 1/G2, Ground & First Floor, Api-Api Centre, Jalan Centrepoint, 88000, Kota Kinabalu, Sabah, Malaysia"
McDonald's,McDonald's Centre Point KK,5.9781469,116.0718643,"Lot L-9, Lower Ground Floor, Centre Point Shopping Centre, Jalan Centre Point, 88000, Kota Kinabalu, Sabah, Malaysia"
McDonald's,McDonald's SS15 Subang,3.0736568,101.5905131,"GF, No. 82 & 84, Jalan SS 15/4D, 47500, Subang Jaya, Selangor, Malaysia"
McDonald's,McDonald's Project Karak,3.2404302,101.7168337,"Lot 5946, Jalan Lingkaran Tengah II, Off Lebuhraya Karak, 53300, Gombak, Selangor, Malaysia"
McDonald's,McDonald's Section 14,3.1096001,101.6369965,"No.2, Jalan 14/4, 46100, Petaling Jaya, Selangor, Malaysia"
McDonald's,McDonald's PJ Old Town,3.0850691,101.646747,"No.66, Block Crystal, Jalan 1/19, 46200, Petaling Jaya, Selangor, Malaysia"
McDonald's,McDonald's Kuala Terengganu DT,5.3132778,103.1394085,"Lot 3540, Jalan Sultan Mohammad, Padang Hiliran, 21100, K.Terengganu, Malaysia"
McDonald's,McDonald's Caltex Chukai,4.229424,103.4199704,"K-191, Jalan Kubang Kurus, Cukai Kemaman, 24000, Kemaman, Terengganu, Malaysia"
McDonald's,McDonald's Putrajaya Persint 2 DT,2.9165814,101.6850556,"Sebahagian Lot 7 (2M1), Presint 2, 62100 Putrajaya"
McDonald's,McDonald's BHP Jalan Kapar,3.0670179,101.4228045,"PT 34062, Batu 3.5 Jalan Kapar, 42100 Selangor Darul Ehsan"
McDonald's,McDonald's Cyberjaya DT,2.921244,101.6560338,"Prima 5-B, Jalan Teknorat 5, 63000, Cyberjaya, Selangor Darul Ehsan"
McDonald's,McDonald's Petrajaya DT,1.5869587,110.3313667,"Plot 1, Lot 477 (Phase 2) Block 17, Salak Land District, Jalan Semariang, 93050, Kuching, Sarawak, Malaysia"
McDonald's,McDonald's Kuantan Riverfront DT,3.7962996,103.3174861,"Sebahagian Lot 57 & Sebahagian Lot 5, Jalan Tanah Putih, 25000, Kuantan, Pahang"
McDonald's,McDonald's Suria Sabah KK,5.9867933,116.0775039,"Lot G-Ext 1 & Part of Lot G35, Ground Floor, Suria Sabah Shopping Mall, No. 1, Jalan Tun Fuad Stephens, 88000 Kota Kinabalu, Sabah, Malaysia"
McDonald's,McDonald's Suria KLCC,3.158154,101.7120899,"Lot C35 - 38, Concourse Floor, Suria KLCC Shopping Centre, Jalan Ampang, 50088, Kuala Lumpur, Malaysia"
McDonald's,McDonald's BHP Taman Kosas DT,3.148549,101.7694486,"Lot PT 9623, Jalan Taman Kosas 2, Taman Kosas, 68000, Ampang, Selangor, Malaysia"
McDonald's,McDonald's Shell Putra Height DT,2.9968984,101.5715518,"Lot PT. 35810, Persiaran Putra Indah, Putra Heights, Mukim Damansara, Daerah Petaling, 47650, Selangor, Malaysia"
McDonald's,McDonald's Shell Jalan Pandan DT,1.5338243,103.7837637,"Lot PTD 209631, Jalan Pandan, 81100, Johor Bahru, Johor, Malaysia"
McDonald's,McDonald's Paradigm Mall JB,1.5156318,103.6857437,"Lot 4F-45B, Fourth Floor, Paradigm Mall JB, Jalan Skudai, 81200 Johor Bahru, Johor."
McDonald's,McDonald's MyTown Mall,3.1348713,101.722742,"Lot No. B1-03 & B1-E-03, MyTown Shopping Centre, No. 6, Jalan Cohcrane, Section 90, 55100, Kuala Lumpur, Malaysia"
McDonald's,McDonald's Setia Alam DT,3.0986004,101.4493639,"PT 34532, Jalan Setia Alam AR U13/AR, Setia Alam, Section U13, 40170, Shah Alam, Selangor, Malaysia"
McDonald's,McDonald's Sunway Velocity Mall,3.127871400000001,101.7248453,"LG, Sunway Velocity Mall, Jalan Peel, 55100, Kuala Lumpur, Malaysia"
McDonald's,McDonald's Bintang Plaza Miri,4.4053222,114.0032015,"Lot 1264, 1st Floor, Bintang Plaza Shopping Centre, Jalan Miri-Pujut, 98008 Miri, Sarawak, Malaysia"
McDonald's,McDonald's Setia Pearl DT,5.3130725,100.2768388,"Part of Lot 16793, Mukim 12, Barat Daya, 11900, Pulau Pinang, Malaysia"
McDonald's,McDonald's Ampangan DT,2.7225361,101.9553133,"Lot GE-03, Centrepoint Seremban, Jalan Dato' Siamang Gagap, 70300, Seremban, Negeri Sembilan, Malaysia"
McDonald's,McDonald's Shell Serdang Raya,3.0339945,101.7050616,"Lot PT 2469, Jalan Utama, Taman Serdang Jaya, 43300 Seri Kembangan, Selangor."
McDonald's,McDonald's Intermark Mall,3.1613001,101.7199536,"Lot No. G17, G17A & G17B, Ground Floor, Intermark Mall, 348, Jalan Tun Razak, 50400, Kuala Lumpur, Malaysia"
McDonald's,McDonald's Gurney Plaza,5.4387466,100.3189185,"Unit No. 170-G-75 & 170-01-73, 10250, Penang, Malaysia"
McDonald's,McDonald's Petronas Kota Damansara DT,3.149731,101.579905,"Part of Petronas Station Kota Damansara, No 30, Jalan Teknologi, Seksyen 2, PJU5, Kota Damansara, 47810 Petaling Jaya, Selangor"
McDonald's,McDonald's Danau Kota DT,3.2049496,101.7148135,"Part of Lot 201138, Jalan Langkawi, Mukim Setapak, Taman Danau Kota, 53300 Kuala Lumpur."
McDonald's,McDonald's Canary Garden Klang DT,3.0044867,101.442063,"Part of Lot PT 51795, Jalan Langat KS8, Bandar Bestari, 41200 Klang, Selangor Darul Ehsan."
McDonald's,McDonald's Desa Park City DT,3.1869487,101.6277335,"Lot GF32 & FF31, Waterfront Parkcity, Persiaran Residen, Desapark City, 52200 Kuala Lumpur."
McDonald's,McDonald's Shell Port Dickson DT,2.4584607,101.857893,"Lot 9169, 7th Mile, Jalan Pantai, Kampung Baharu, 71050 Port Dickson, Negeri Sembilan"
McDonald's,McDonald's Shell Section 13 DT,3.1550704,101.5250443,"No. 1, Jalan 13/55A, Seksyen 13, 40100 Shah Alam, Selangor Darul Ehsan."
McDonald's,McDonald's Shell Mahkota Cheras DT,3.0713702,101.768762,"Bandar Mahkota Cheras, 43200, Batu 9, Cheras, Selangor."
McDonald's,McDonald's Beverly Hills DT,5.933425,116.0994748,"Lot No. CL 215347916 (Lot 9), Jalan Bundusan, Penampang, 88620 Kota Kinabalu, Sabah."
McDonald's,McDonald's Petron Bandar Saujana Putra DT,2.9456991,101.5863217,"Part of Lot 26104, Jalan Saujana Putra, Bandar Saujana Putra, Off Lebuhraya ELITE, 42610 Jenjarom Selangor."
McDonald's,McDonald's Juru R&R,5.3442848,100.435686,"Part of Lot No. 341 & 6154, Mukim 6, Jalan Bukit Tengah, Seberang Perai Tengah, 13700 Pulau Pinang"
McDonald's,McDonald's Shaftsbury DT,2.9387596,101.7133118,"Unit No. G-17, Ground Floor, Shaftsbury Putrajaya, Jalan Alamanda, Presint 1, 62000 Putrajaya, Wilayah Persekutuan Putrajaya"
McDonald's,McDonald's Petronas Pasir Pekan DT,6.109485599999999,102.249481,"Lot 3201, Stesyen Minyak Petronas, Kampung Pasir Pekan, 16250, Pasir Pekan Kota Bharu, Kelantan Darul Naim"
McDonald's,McDonald's Shell SS6,3.1048273,101.59903,"Lot PT 3630, Jalan SS 6/12, Kelana Jaya, 47301 Petaling Jaya, Selangor"
McDonald's,Petronas Batu 3 Federal Highway DT,3.0807645,101.5722642,"Lot PT 5, HD(D) 239246, Batu 3 Federal Highway, Pekan Country Height (Federal Highway Klang Bound), Daerah Petaling, 46150 Subang Jaya, Selangor"
McDonald's,McDonald's Kuala Pilah DT,2.736195,102.2234471,"Lot PT 2781, Jalan Melang, Taman Melang, 72000 Kuala Pilah, Negeri Sembilan"
McDonald's,McDonald's Amanjaya DT,5.6408269,100.5412401,"Part of Lot 894-Lot 900, Lot 955-Lot 961, Seksyen 64, Bandar Aman Jaya, Seksyen 64, Bandar Aman Jaya, 08000, Sungai Petani, Kedah Darul Aman"
McDonald's,McDonald's Pearl Point DT,3.0846946,101.6733384,"Lot No G-08, Ground Floor, Pearl Point Shopping Complex, 5th Mile, Old Klang Road, 58000 Kuala Lumpur"
McDonald's,McDonald's Stulang DT,1.4697757,103.7821234,"Lot PTB 24076, Jalan Ibrahim Sultan, Stulang Laut, Bandar Johor Bahru, 80300 Johor Bahru, Johor"
McDonald's,McDonald's Educity JB DT,1.4376015,103.6200747,"Lot PTD 189218, Jalan Kampung Lalang, Educity, Iskandar Puteri, 79100 Johor Bahru, Johor"
McDonald's,McDonald's Jalan P. Ramlee,3.1548748,101.7087065,"Lot G-W-1, Ground Floor, West Wing, Rohas Pure Circle, No 9, Jalan P Ramlee, 50450 Kuala Lumpur"
McDonald's,McDonald's Bagan Ajam DT,5.4497418,100.3829737,"Plot No. 2, Pusat Perniagaan Oren, Diatas Lot 10067 (Sebahagian Lot Lama: 35), Jalan Bagan Ajam Seksyen 1, 13000 Bandar Butterworth, Seberang Perai Utara Pulau Pinang."
McDonald's,McDonald's AMJ Bertam DT,2.2491176,102.223324,"GM 229, Lot 18859, Mukim Bertam, 75260 Daerah Melaka Tengah, Melaka"
McDonald's,McDonald's Semporna DT,4.4785358,118.6108301,"Country Lease 125340490, Mile 1, Jalan Bubul, 91308 Semporna, Sabah"
McDonald's,McDonald's Keningau DT,5.3407735,116.1578565,"Country Lease 135367387, Jalan Jabatan Perhutanan, Off Lebuhraya Keningau-Tambunan, 89008 Keningau, Sabah"
McDonald's,McDonald's PSS Bukit Katil DT,2.2359698,102.30099,"Lot 4985, Jalan Tun Hamzah, Mukim Bukit Katil, 75450 Bukit Katil, Melaka"
McDonald's,McDonald's Likas Bay KK,6.0098577,116.1106201,"Lot C, Anjung Selera, Tanjung Lipat, Likas Jalan Tun Fuad Stephens, 88400 Kota Kinabalu Sabah"
McDonald's,McDonald's BHP Jalan Kepong,3.2042348,101.6683718,"Lot PT 1, Batu 6 1/2, Jalan Kepong, 52000 Kuala Lumpur"
McDonald's,McDonald's Petronas Bandar Kinrara DT,3.0663584,101.6501179,"Part of Lot 4054, Phase 5A, Jalan Kinrara 6, Bandar Kinrara, 47180 Puchong, Selangor"
McDonald's,McDonald's Petronas Taman Dagang Drive-Thru,3.1453237,101.755248,"Petronas Taman Dagang, PT 12671, Jalan Nirwana, Taman Nirwana, 68000, Ampang, Selangor."
McDonald's,McDonald's Desa Tebrau DT,1.564744,103.7915359,"Lot PTD 83404, Taman Desa Tebrau, 81100 Mukim Tebrau, Johor Bahru"
McDonald's,McDonald's Shell Jalan Sentul DT,3.1843246,101.6918898,"PT 8938, Jalan Sentul/Batu Caves, Mukim Setapak, Sentul, 51100 Kuala Lumpur"
McDonald's,McDonald's Subang Bestari DT,3.1767502,101.5458856,"PT 42395, Jalan Nova J U5/J, Subang Bestari, Seksyen U5, 40150 Shah Alam, Selangor."
McDonald's,McDonald's Bahau DT,2.81157,102.3968879,"PT1127, Jalan Kiara 1/2, Pusat Perniagaan Kiara, 72100 Bahau, Negeri Sembilan"
McDonald's,McDonald's Petronas Pekan Baru Subang,3.1537063,101.5517161,"PT 684 HS(D) 256544, Jalan Sungai Buloh - Batu 3, Mukim Pekan Baru Subang, Petaling, 40150 Selangor."
McDonald's,McDonald's Tampin DT,2.4755509,102.2193866,"Lot 613, Jalan Seremban-Tampin, 73000 Tampin, Negeri Sembilan"
McDonald's,McDonald's Kuala Kangsar DT,4.7720778,100.9328938,"Lot 2492, Jalan Taiping, Mukim Sayong, 33000 Daerah Kuala Kangsar, Perak Darul Ridzuan"
McDonald's,McDonald's Eco Majestic DT,2.9054033,101.83647,"No. 1, Jalan Eco Majestic 9/1, Eco Majestic, 43500 Semenyih, Selangor"
McDonald's,McDonald's Wisma Lim Foo Yong,3.1504991,101.7072273,"Wisma Lim Foo Yong, Lot No. 62, Seksyen 57, Jalan Raja Chulan, 50250 Kuala Lumpur."
McDonald's,McDonald's PKNS PJ DT,3.0998784,101.6427111,"Lot 201, No. 17, Jalan Yong Shook Lin, Menara PKNS Petaling Jaya, Seksyen 7, 46050 Selangor Darul Ehsan"
McDonald's,McDonald's Merlimau DT,2.1667789,102.4320607,"PT 6370, Jalan BMU 1, Bandar Baru Merlimau Utara, 77300 Merlimau, Melaka"
McDonald's,McDonald's Sentul UOA DT,3.2003662,101.6901517,"LOT PT 10098, Jalan Sentul Pasar, Mukim Setapak Dalam, Bandaraya Kuala Lumpur 51000 Kuala Lumpur"
McDonald's,McDonald's PSS USJ1 DT,3.0357416,101.6281767,"Lot HS(D) 216848, PT 36061, Pekan Penaga, Taman Subang Mewah, Subang Jaya, Selangor"
McDonald's,McDonald's Seri Austin DT,1.571432,103.776397,"Lot 132943, Persiaran Jaya Putra, Taman Seri Austin, 81100 Johor Bahru, Johor."
McDonald's,McDonald's Simpang Renggam DT,1.8221925,103.3155637,"Lot 17143, Jalan Besar, Mukim Renggam, Simpang Renggam, 86200 Kluang, Johor"
McDonald's,McDonald's PSS Jalan REKO DT,2.967791,101.7892012,"Lot 53934, Reko Sentral, Mukim Kajang, 43000 Daerah Hulu Langat, Selangor"
McDonald's,McDonald's PSS Taman Perling DT,1.4737521,103.6687236,"Lot 50844, Jalan Layang 16, Taman Perling, 81200 Johor Bahru, Johor"
McDonald's,McDonald's Kota Star DT,6.139919,100.3887563,"Lot 81, Jalan Sultanah Bahiyah, Mukim Alor Malai. 05350 Kota Setar Kedah"
McDonald's,McDonald's Cameron Highland DT,4.4668297,101.3858571,"Lot Pt 3275, Mukim Tanah Rata, 39000, Daerah Cameron Highlands, Pahang Darul Makmur."
McDonald's,McDonald's PSS Bukit Beruntung DT,3.4193468,101.5816534,"Lot 10496, No. 1 Jalan Kamunting, Mukim Serendah, 48300 Daerah Hulu Selangor, Selangor"
McDonald's,McDonald's Shell Tasik Ampang DT,3.1510602,101.7454777,"Lot PT 2536, Lebuh Raya Lingkaran Tengah 2, Mukim Ampang, 55000 Kuala Lumpur"
McDonald's,McDonald's Kubang Kerian DT,6.0869673,102.2762529,"Lot 523 Seksyen 54, Mukim Kenali, Daerah Kubang Kerian, Jajahan Kota Bharu, Kelantan Darul Naim"
McDonald's,McDonald's Kajang Impian DT,2.9749419,101.7718328,"Lot PT. 70550, Jalan Kajang Impian 1/2, Taman Kajang Impian, Mukim Bandar Baru Bangi, 43650 Daerah Hulu Langat, Selangor."
McDonald's,McDonald's Shell Lukut DT,2.5705462,101.8293275,"PT4849, Jalan Besar Lukut, Batu 4, Bandar Baru Lukut, 71010 Port Dickson, Negeri Sembilan"
McDonald's,McDonald's PSS Bangi NB Layby DT,2.8198968,101.8023098,"Lot PT 2 (HSD 41974) Berhadapan Lebuhraya, Utara Selatan KL - (KM 297.9 - 298.1 Arah Utara) Bandar Sungai Merab, Mukim Dengkil, Sepang, Selangor Darul Ehsan"
McDonald's,McDonald's Shell Dengkil Bypass DT,2.8669064,101.6954435,"Lot 101777, KM 48.7, Jalan Pintasan Dengkil-Putrajaya (FT 29) Arah Utara, 43800 Dengkil, Selangor"
McDonald's,McDonald's Caltex Sungai Dua DT,5.41106,100.4132858,"Caltex Sungai Dua North Bound, PMT 10359, KM 132.5, Lebuhraya Utara Selatan, 13600 Permatang Pauh, Pulau Pinang"
McDonald's,McDonald's Shell Bandar Botanik DT,2.9919912,101.4468777,"Lot PT 118176 Jalan Langat, Bandar Botanik, 41200 Klang, Selangor"
McDonald's,McDonald's Shell Bukit Bintang DT,3.1474085,101.7178439,"225, Bukit Bintang St, Imbi, 55100 Kuala Lumpur, Federal Territory Of Kuala Lumpur"
McDonald's,McDonald's Bandar Bukit Puchong DT,2.9826204,101.6183667,"2, Jalan BP 7/1 Sierra 7, Bandar Bukit Puchong, 47120 Puchong, Selangor"
McDonald's,McDonald's Genting Grand,3.4237042,101.7927974,"Lot No. G/LG1A.00, Lower Ground Floor, Genting Grand Hotel, Genting Highlands Resort, 69000 Genting Highland, Pahang"
McDonald's,McDonald's Langkawi Kuah DT,6.303293,99.7937293,"Lot 107, Mukim Kuah, 07000 Daerah Langkawi Kedah"
McDonald's,McDonald's Amverton DT,3.21839,101.5276619,"Lot 85631, Jalan U17/16, Bukit Amverton Seksyen U17, 40160 Shah Alam, Selangor"
McDonald's,McDonald's ICONIC Simpang Ampat DT,5.2835499,100.4762989,"2, Jalan Iconic Point, Iconic Point, 14100 Simpang Ampat, Pulau Pinang"
McDonald's,McDonald's Shell Jalan Kuching DT,3.2495352,101.6492344,"Lot 58043, Jalan Kuching, Mukim Batu 68100, Wlayah Persekutuan Kuala Lumpur"
McDonald's,McDonald's Penang International Airport,5.2959898,100.2751656,"Lot PC 05, Depature Level, Penang International Airport, 11900 Bayan Lepas, Pulau Pinang"
McDonald's,McDonald's Troika,6.1204708,102.2407675,"Lot 1-1, 1-2 Residensi Troika, Jalan Mahmood, 15200 Kota Bharu, Kelantan"
McDonald's,McDonald's Labuan,5.3065826,115.2364087,"IR9/C12, Tropical Umbrella Light, Industrial Estate, Jalan Arsat, 87014, WP Labuan, Malaysia"
McDonald's,McDonald's Shell Wangsa Maju DT,3.1967443,101.7447616,"Lot 28332, Jalan 8/27A, Pusat Bandar Wangsa Maju, 53300 Kuala Lumpur"
McDonald's,McDonald's Jalan Tun Razak DT,3.1718741,101.7086753,"No 9, Jalan Fletcher, 50400 Kuala Lumpur"
McDonald's,McDonald's Caltex Krubong DT,2.2971667,102.2483222,"Sebahagian Lot 23344, Jalan Pantai Belimbing,75260 Krubong, Melaka"
McDonald's,McDonald's Shell Seremban Jaya DT,2.672861,101.9810077,"Jalan Seremban Jaya, PT 2443, Pekan, 71450 Seremban, Negeri Sembilan"
McDonald's,McDonald's IKEA Batu Kawan DT,5.270447,100.4196629,"Plot No. 1, HSD 47588, PT 5910, Mukim 13, Seberang Perai Selatan, 14100 Batu Kawan, Pulau Pinang"
McDonald's,McDonald's Petronas Tanah Merah DT,5.7893368,102.0946818,"PSS Maka, Lot 9844 & 9845, Mukim of Maka, 17500 Jajahan Tanah Merah, Kelantan."
McDonald's,McDonald's Edusphere DT,2.9318832,101.6375963,"Atelier Centre, Jalan Atelier 1, Edusphere, Cyber 11, 63000 Cyberjaya, Selangor."
McDonald's,McDonald's Petron North Kiara DT,3.1851231,101.6569421,"452, Jalan Segambut, Kampung Segambut Tengah, 1200 Kuala Lumpur"
McDonald's,McDonald's Tanjung Tokong DT,5.4469403,100.305679,"No. 6, Jalan Tanjung Tokong, 10250 George Town Pulau Pinang"
McDonald's,McDonald's Pantai Sentral Park DT,3.1021286,101.6666391,"No. 2, Jalan Pantai Sentral 1, Pantai Sentral, 59200, Wilayah Persekutuan Kuala Lumpur."
McDonald's,McDonald's Tanjong Malim DT,3.736031,101.5112081,"Lot 232, Jalan Tanjong Malim, Proton City, Mukim Hulu Bernam Proton City, Mukim Hulu Bernam, 35900 Timor Daerah Muallim, Perak."
McDonald's,McDonald's R&R Seremban SF,2.7653111,101.8289644,"Lot C-02, Kawasan Rehat dan Rawat (R&R) Seremban (Arah Utara), Lebuhraya Utara-Selatan, 71800 Labu, Negeri Sembilan."
McDonald's,McDonald's Puchong Perdana SF,3.0067625,101.6059114,"No. 43, Jalan Perdana 3/4, Taman Puchong Perdana, 47150 Puchong, Selangor."
McDonald's,McDOnald's R&R Tapah SF,4.6005126,101.0757837,"Lot C3, Kawasan Rehat & Rawat Tapah (Arah Utara), KM 331.8 Lebuhraya Ipoh-Bidor, 35000 Ipoh, Perak."
McDonald's,McDonald's BHP Kewajipan DT,3.046124,101.5926558,"PT 14258, Jalan Kewajipan Subang Jaya, 47500 Petaling Jaya, Selangor."
McDonald's,McDonald's BHP Subang Airport DT,3.1398182,101.5496434,"Lot PT3, Km 2, Jalan Lapangan Terbang Subang, 47200 Subang, Selangor."
McDonald's,McDonald's Marang DT,5.160354,103.2086442,"Lot 58304 & PT 15756, Mukim Rusila, 21600 Daerah Marang, Terengganu."
McDonald's,McDonald's Gua Musang DT,4.863299,101.959002,"PT 14693, Bandar Gua Musang, Daerah Galas, 18300 Gua Musang, Kelantan."
McDonald's,McDonald's Bukit Raja DT,3.0821584,101.4332419,"Lot 53240, Persiaran Batu Belah, Bandar Bukit Raja, 42100 Klang, Selangor."
McDonald's,McDonald's Lagenda Putra Kulai DT,1.6575425,103.5686756,"Lot 101428, Jalan Alor Bukit, Taman Lagenda Putra, 81000 Kulai, Johor"
McDonald's,McDonald's Petron Section 24 DT,3.0434619,101.5195414,"PT 1513, Persiaran Jubli Perak, Seksyen 24, 40300 Shah Alam, Selangor"
McDonald's,McDonald's Shell USJ Hicom DT,3.0303734,101.5721849,"Lot 2866, Persiaran Klang, USJ Tanamera, 47630 Subang Jaya, Selangor"
McDonald's,McDonald's Shell Saujana Utama DT,44.5379358,1.6760691,"Lot 15969, Persiaran E1-1, Jalan Bidara 6/1, Bandar Saujana Utama, 47000 Sungai Buluh, Selangor"
McDonald's,McDonald's Batu Buruk DT,5.2988453,103.1682675,"Diatas Sebahagian Lot 3366 PN 10853, 20400 Mukim Batu Buruk, Daerah Kuala Terengganu, Terengganu"
McDonald's,McDonald's PSS Bandar Sierra DT,5.9929981,116.1130837,"Stesen Petronas KM16 Jalan Tuaran, Menggatal North (Tebobon), 88450 Kota Kinabalu, Sabah"
McDonald's,McDonald's Tangkak DT,2.2634643,102.5376881,"3777, 3778 & 1199, Jalan Muar, 86900 Tangkak, Johor"
McDonald's,McDonald's Amerin Balakong DT,3.0143025,101.790265,"One Amerin Mall, Tingkat Aras Tanah, Lot G-1 & G-2, Lot 58124, One Amerin Mall, Jalan Impian Indah, 43000 Mukim Kajang Daerah Hulu Langat, Selangor."
McDonald's,McDonald's 1 Shamelin DT,3.1227265,101.7401395,"Lot A-LG-063A, A-LG-065 & A-G065, Level LG, G, 1Shamelin Mall, No. 100 Jalan 4/91, Taman Shamelin Perkasa, 56100"
McDonald's,McDonald's Jasin DT,2.3085111,102.4314084,"Lot PT 6194, Jalan Aman, Kampung Jasin Hilir, 77000 Jasin Melaka."
McDonald's,McDonald's Jitra DT,6.2403029,100.4213219,"Bangunan Stesen Minyak Caltex & Restoran Pandu Lalu, Lot 88, Jalan Bandar Darul Aman - Jitra, 06000 Jitra, Kedah"
McDonald's,McDonald's BHP Genting Klang DT,3.1983776,101.7160787,"5241 & 5242, 295, Jalan Genting Kelang, Perusahaan PKNS, 53200 Kuala Lumpur."
McDonald's,McDonald's Giant Ulu Kelang,3.2073244,101.7517286,"SG03 & SG04, Giant Ulu Kelang, Lot 13793 & 13796 Jalan Changkat Permata, 53300 Kuala Lumpur."
McDonald's,McDonald's Kuala Krai DT,5.542322599999999,102.2065158,"PT 6407, Jalan Taman Sri Guchil, 18000 Kuala Krai, Kelantan."
McDonald's,McDonald's Kota Seriemas DT,2.7799189,101.7727687,"Lot 21599, Persiaran Seriemas Utama, Kota Seriemas, 71800 Nilai, Negeri Sembilan."
McDonald's,McDonald's Papar DT,5.7040677,115.9319772,"Lot 150, Parklane City Benoni, Jalan Pan Borneo, 89600 Papar, Sabah"
McDonald's,McDonald's KKIA Airside,5.923283,116.0512391,"L2A03, Level 2, Dosmetic Depature / Arrival (Airside), Kota Kinabalu International Airport, Sabah"
McDonald's,McDonald's Arau DT,6.400292299999999,100.2712297,"Lot 4308 Dan Sebahagian Lot 8128, 02600 Arau, Perlis"
McDonald's,McDonald's Mergong DT,6.111810999999999,100.375902,"Lot 7915 (Lot Lama 5545), H.S.(M) 13273, Bandar Alor Setar, Daerah Kota Setar, 05050, Kedah"
McDonald's,McDonald's Seremban Town DT,2.7272005,101.9365712,"Lot 16933, Jalan Tuanku Munawir, Bandar Seremban, 70000 Seremban, Negeri Sembilan"
McDonald's,McDonald's Komtar JBCC,1.4632609,103.7633831,"Lot No. G36, G37 & G38, Ground Floor, Komtar JBCC, 80000 Johor Bahru, Johor"
McDonald's,McDonald's Shell Sri Pulai Perdana DT,1.5663609,103.6012109,"Lot 105042, Lebuhraya Skudai-Pontian, Bandar Pulai Jaya, 81110 Johor Bahru"
McDonald's,McDonald's Bandar Rimbayu DT,2.9491116,101.5489168,"No: 1, Persiaran Rimbayu, Bandar Rimbayu, 42500 Telok Panglima Garang, Selangor."
McDonald's,McDonlad's Kota Samarahan DT,1.4547768,110.4113835,"Lot 2276, Muara Tuang Land District, Jalan Mohammad Musa, 94300 Kota Samarahan Sarawak."
McDonald's,McDonald's RTC Gopeng DT,4.4926297,101.1534387,"Lot PT 6651 [H.S (D) 191423] Persiaran RTC, 31600 Gopeng, Perak"
McDonald's,McDonald's Titiwangsa DT,3.1812734,101.701325,"Lot 8, Section 85, Jalan Pahang, 53000, Setapak, Kuala Lumpur, Malaysia."
McDonald's,McDonald's KLIA Anjung,2.7535362,101.7043387,"VD-5-L01, Viewing Gallery, Level 5, Main Terminal Building, Kuala Lumpur International Airport, 64000 Selangor"
McDonald's,McDonald's Jalan Tun Perak DT,2.2106436,102.242244,"Lot 20,21 & 22, Jalan Tun Perak, Kampung Enam, 75300 Melaka Tengah, Melaka."
McDonald's,McDonald's KLIA 2 Satellite,2.7422454,101.6861956,"S6-3-A09 & S6-3-A07, International Departure Level (Airside), KLIA 2, H.S. (D) 7429, PT. No. 13, Bandar Lapangan Terbang Antarabangsa Sepang, 64000, Sepang, Selangor."
McDonald's,McDonald's Tuaran Bypass DT,6.021712,116.141738,"Part of CL. 015367254 & CL. 015092092, Jalan Tuaran Bypass, Kg. Darau, 88400 Kota Kinabalu, Sabah"
McDonald's,McDonald's Bandar Sri Sendayan DT,2.6808596,101.8662353,"PT 12659, Jalan Pusat Dagangan Sendayan 3, Bandar Sri Sendayan, 71590 Seremban, Negeri Sembilan"
McDonald's,McDonald's Rembau DT,2.602112,102.069304,"Lot PT 1432, Mukim Pekan Rembau, Daerah Rembau, 71300 Negeri Sembilan"
McDonald's,McDonald's Shell Taman Desa DT,3.0972609,101.6778173,"1 Jln 3/109E, Desa Business Park, Taman Desa, 58100 Kuala Lumpur"
McDonald's,McDonald's BHP Plentong DT,1.5272735,103.817447,"Lot 80686 (PTD 116060) Jalan Mutiara 6, Taman Perindustrian Plentong, Mukim Plentong, 81750 Daerah Johor Bahru, Johor"
McDonald's,McDonald's Bandar Baru Uda DT,1.4961445,103.7076058,"PTB 20794, Jalan Padi Emas 1, Bandar Baru Uda, 81200 Johor Bahru"
McDonald's,McDonald's AEON BIG Bukit Rimau DT,2.99953,101.5283741,"PT 135600, No. 2A, Jalan Sungai Burung 32/68, Seksyen 32, 40460 Shah Alam, Selangor"
McDonald's,McDonald's Terminal Larkin,1.4955741,103.7426861,"No. 5B-05, Ground & First Floor, Terminal Larkin, No.4, Jalan Geroda, Larkin Jaya, 80350, Johor Bahru, Johor"
McDonald's,McDonald's PSS Jalan TAR JB DT,1.4869514,103.7243021,"Lot PTB 21742, Jalan Tun Abdul Razak, Taman Tasek, Mukim Bandar Johor Bahru, 80200 Daerah Johor Bahru, Johor"
McDonald's,McDonald's Caltex Sungai Dua SB DT,5.458607799999999,100.4190842,"Stesen Minyak Caltex, PMT1294, Di Atas Lot 3263, KM 128.9 (Selepas Tol Sungai Dua Arah Selatan), Lebuhraya Utara Selatan, Mukim 10, 13600 Seberang Perai Utara, Pulau Pinang."
McDonald's,McDonald's PSS Canning Garden DT,4.6022738,101.114798,"Lot PT253208, Jalan Raja Di Hilir (Zon B), 31400 Ipoh, Perak"
McDonald's,McDonald's Senai Airport DT,1.636504,103.6666542,"Sebahagian Lot PTD 8797, Lapangan Terbang Sultan Ismail, Mukim Senai, 81400, Kulai Jaya, Johor Bahru, Johor"
McDonald's,McDonald's PSS Pekan Nanas DT,1.4959729,103.525111,"Lot PTD 14294, Jalan Industri 8, Kampung Batu, 81500 Pekan Nanas, Johor Bahru, Johor"
McDonald's,McDonald's PSS Tuaran Town DT,6.1455857,116.2142676,"Part of CL.045337451 at Kg. Dungun, Jalan Berungis, 89150 Tuaran, Sabah"
McDonald's,McDonald's Batu Pahat 2 DT,1.8376349,102.9467396,"PTD 64538, Jalan Tanjung Labuh, 83000 Batu Pahat, Johor"
McDonald's,McDonald's Nusa Sentral DT,1.4588752,103.6232462,"Lot 155422, Jalan Nusa Sentral, Taman Nusa Sentral, 79100 Iskandar Putri, Johor"
McDonald's,McDonald's BHP Raub DT,3.7991616,101.8646417,"Lot 10, Jalan Lipis, 27600, Pahang"
McDonald's,McDonald's Desa Petaling SF,3.082331,101.7049999,"1-3, Pusat Perdagangan Salak II, Jalan 2/125, Taman Desa Petaling, 57100 Kuala Lumpur"
McDonald's,McDonald's Greentown DT,4.6023593,101.095898,"Lot 9665N, Jalan Raja Ashman Shah, 30450 Ipoh, Perak"
Starbucks,STARBUCKS PETRON SEKINCHAN DT,3.5046211,101.1030209,"17100C, JALAN BESAR, PARIT 4, SUNGAI BURONG, 45400 SEKINCHAN, SELANGOR"
Starbucks,STARBUCKS PETRON SEKINCHAN DT,3.5046211,101.1030209,"17100C, JALAN BESAR, PARIT 4, SUNGAI BURONG, 45400 SEKINCHAN, SELANGOR"
Starbucks,STARBUCKS KUCHAI LAMA,3.0889197,101.7032288,"NO 1 & 1-1, JALAN 10/116B, KUCHAI ENTREPRENEUR PARK, 58200 KUALA LUMPUR"
Starbucks,STARBUCKS KOTA KEMUNING DT,3.005375,101.5386305,"PART OF LOT PT128300, JALAN ANGGERIK VANILA,KOTA KEMUNING, SEKSYEN 31,40460 SHAH ALAM, SELANGOR"
Starbucks,STARBUCKS CLUB NEXU5,3.1106019,101.6662729,"LOT F&B 01, GROUND FLOOR, CLUB NEXU5, BANGSAR SOUTH, 59200 KUALA LUMPUR"
Starbucks,STARBUCKS TANJONG TOKONG DT,5.4466335,100.3055917,"4-G JALAN PANTAI MOLEK, 10470 TANJUNG TOKONG, PENANG."
Starbucks,STARBUCKS PUCHONG JAYA,3.0457551,101.6228934,"G-01, KOMPLEKS KENARI, JALAN KENARI 19, BANDAR PUCHONG JAYA, 47100 PUCHONG, SELANGOR."
Starbucks,STARBUCKS MENARA HAP SENG,3.1528619,101.7076971,"SUITE G-09, GROUND FLOOR, THE PODIUM MENARA HAP SENG, LETTER BOX 29, JALAN P.RAMLEE 50250, KUALA LUMPUR."
Starbucks,STARBUCKS AEON CHERAS SELATAN,3.0335689,101.7650417,"LOT G31, AEON CHERAS SELATAN SHOPPING CENTRE, LEBUH TUN HUSSIEN ONN, 43200 BALAKONG, SELANGOR."
Starbucks,STARBUCKS LAGENDA VILLAGE MALL,5.6593536,100.5013207,"LOT G-9, G-15, G-16 GROUND FLOOR VILLAGE MALL JALAN LEGENDA 1, LEGENDA HEIGHTS,08000 SUNGAI PETANI. KEDAH."
Starbucks,STARBUCKS JETTY POINT LANGKAWI,6.306162899999999,99.85235809999999,"LOTS 15 & 16, ZONE 2, JETTY POINT DUTY FREE COMPLEX, JETTY KUAH, LANGKAWI, 07000 LANGKAWI, KEDAH DARUL AMAN"
Starbucks,STARBUCKS MENARA MAYBANK,3.1472732,101.6995352,"FOYER AREA, 1ST FLOOR, MENARA MAYBANK, 100, JALAN TUN PERAK, 50050 KUALA LUMPUR, MALAYSIA."
Starbucks,STARBUCKS JOHOR BAHRU CITY SQUARE,1.461799,103.7639603,"LOT J1-06, LEVEL 1, JOHOR BAHRU CITY SQUARE, NO. 106 & 108, JALAN WONG AH FOOK, 80000 JOHOR BAHRU, JOHOR, MALAYSIA."
Starbucks,STARBUCKS JAYA SHOPPING CENTRE,3.109189,101.6371808,"LOT G15A & G-16, GROUND FLOOR, JAYA SHOPPING CENTRE, SECTION 14, 46100 PETALING JAYA, SELANGOR"
Starbucks,STARBUCKS PETRONAS EQUINE PARK DT,3.003022000000001,101.679111,"PETRONAS STATION EQUINE PARK 1, MUKIM PETALING, 43300, SERI KEMBANGAN, SELANGOR"
Starbucks,STARBUCKS KOTA KINABALU INTERNATIONAL AIRPORT,5.9843644,116.077344,"LOT L3A01, LEVEL 3, AIRSIDE, TERMINAL 1, KOTA KINABALU INTERNATIONAL AIRPORT, 88740, SABAH."
Starbucks,STARBUCKS LEBUH AMPANG,3.1487701,101.6970736,"LOT G1, GROUND FLOOR, LOT 104, SEKSYEN 12, LEBUH AMPANG, 50100 KUALA LUMPUR"
Starbucks,STARBUCKS PETRONAS SG BESI-PUCHONG DT,3.057444,101.71787,"PETRONAS STATION SG BESI-PUCHONG BYPASS, LOT PT 17732-17740, SUNGAI BESI-PUCHONG BYPASS (KINRARA), MUKIM PETALING, 47100 PUCHONG, SELANGOR"
Starbucks,STARBUCKS TASEK DT,4.6536627,101.1088531,"TEMP ADD: LOT 382914 - 382921, JALAN TASEK MUTIARA 1, PUSAT PERDAGANGAN TASEK MUTIARA, OFF JLN KANGSAR, BDRAYA IPOH , PERAK."
Starbucks,STARBUCKS ALOR SETAR DT,6.096002899999999,100.3764946,"BANGUNAN STARBUCKS COFFEE, LOT 2487  2490, JALAN ALOR MENGKUDU, 05400 ALOR SETAR, KEDAH DARUL AMAN JALAN ALOR MENGKUDU, 05400 ALOR SETAR, KEDAH"
Starbucks,STARBUCKS CAPITAL SQUARE,3.1542071,101.6987835,"UNIT 01-01, GROUND FLOOR, CAP SQUARE TOWER, NO.10, JALAN MUNSHI ABDULLAH, 50100 KUALA LUMPUR"
Starbucks,STARBUCKS LOTUS'S KUALA SELANGOR,3.3195101,101.2706316,"LOT NO. 26 & 26 (EXTERNAL SEATING), GROUND FLOOR, LOTUS'S KUALA SELANGOR, NO. 2, JALAN TIARA 1, MEDAN NIAGA KUALA SELANGOR, 45000 KUALA SELANGOR, SELANGOR"
Starbucks,STARBUCKS LOTUS'S MELAKA DT,2.2367852,102.2873175,"LOT L45, GROUND FLOOR, LOTUS'S MELAKA, NO. 1, JALAN TUN ABDUL RAZAK, 75400 PERINGGIT, MELAKA"
Starbucks,STARBUCKS PLAZA MONT' KIARA,3.166001,101.6519883,"LOT SUITE B, OG-01-02, PLAZA MONT KIARA, NO.2, JALAN 1/70C, MONT' KIARA, 50480 KUALA LUMPUR"
Starbucks,STARBUCKS TAIPING SENTRAL,4.8658711,100.7311884,"LOT G-09 & G-10, TAIPING SENTRAL NO. 36, JALAN ISTANA LARUT 34000 TAIPING, PERAK."
Starbucks,STARBUCKS T2 APAS TAWAU,4.2514368,117.8970826,"NO.15-LOT 29, NO.30-LOT 30, NO.16-LOT 31 & NO.29-LOT 32, T2@APAS, JALAN T2-A, MILE1, JALAN APAS, 91000 TAWAU, SABAH"
Starbucks,STARBUCKS SHELL LDP PUCHONG DT,3.000089500000001,101.6116464,"SHELL NTI LDP PUCHONG, LOT 117230, MUKIM PETALING, DAERAH PETALING, SELANGOR"
Starbucks,STARBUCKS TROIKA KOTA BAHRU,6.1204708,102.2407675,"LOT 1-10 & 1-11, TROIKA KOTA BAHRU, BANDAR KOTA BAHRU, 15200 KOTA BAHRU, KELANTAN"
Starbucks,STARBUCKS ECO GRANDEUR DT,3.2257789,101.4567529,"NO. 31, RUANG NIAGA ECO GRANDEUR, PERSIARAN MOKHTAR DAHARI, 42300 BANDAR PUNCAK ALAM, SELANGOR"
Starbucks,STARBUCKS RESERVE ECO MAJESTIC DT,2.9088928,101.8349029,"NO 1-9, JALAN ECO MAJESTIC 10/1, ECO MAJESTIC, 43500 SEMENYIH, SELANGOR"
Starbucks,STARBUCKS PENANG INTERNATIONAL AIRPORT (MAIN TERMINAL),5.2959898,100.2751656,"LOT L2LFB05C, LEVEL 2, PUBLIC CONCOURSE, PENANG INTERNATIONAL AIRPORT, BAYAN LEPAS, 11900 PENANG, PULAU PINANG"
Starbucks,STARBUCKS JALAN LINTAS DT,5.9701249,116.1108068,"NO. 1, JALAN IRAMANIS, IRAMANIS, 88450 KOTA KINABALU, SABAH"
Starbucks,STARBUCKS SANDAKAN AIRPORT,5.897206799999999,118.061844,"LOT NO. GFL12, GROUND FLOOR, KERBSIDE (LANDSIDE), SANDAKAN AIRPORT, 90000 SANDAKAN, SABAH"
Starbucks,STARBUCKS KLIA FOOD GARDEN,2.754565,101.7041236,"LOT NO. FG 12, FOOD GARDEN, LEVEL 2, MAIN TERMINAL BUILDING (MTB) KUALA LUMPUR INTERNATIONAL AIRPORT"
Starbucks,STARBUCKS AYER KEROH R&R,2.3957239,102.2235403,"AKHNB CL4, AYER KEROH RSA NORTHBOUND, NORTH-SOUTH EXPY, 78000 ALOR GAJAH, MELAKA"
Starbucks,STARBUCKS SEAFEST SEMPORNA SABAH,4.4789869,118.6175283,"LOT 23, LOT 24 & PLAZA A, GROUND FLOOR, SEAFEST COMMERCIAL COMPLEX, 91308 SEMPORNA, SABAH"
Starbucks,STARBUCKS OASIS DAMANSARA,3.113548,101.5768508,"R11, OASIS DAMANSARA, NO.2, JALAN PJU 1A/7A, OASIS ARA DAMANSARA, PETALING JAYA, SELANGOR, MALAYSIA 47301"
Starbucks,STARBUCKS KL ECO CITY MALL,3.117102,101.6676877,"LOT UG-25 & UG-26, LEVEL UG, KL ECO CITY MALL, PANTAI BARU, JALAN BESAR, 59200 KUALA LUMPUR"
Starbucks,STARBUCKS SOUTHLINK BANGSAR,3.1135872,101.6651121,"UNIT B1-06B, BASEMENT 1 FLOOR, RESIDENSI SAMBUNGAN SELATAN (SOUTH LINK), NO.2A, JLN KERINCHI KIRI 2, 59200 KUALA LUMPUR"
Starbucks,STARBUCKS JURU R&R DT,5.3547728,100.4178518,"NO.2, LORONG SETIA SENTRAL 2, PUSAT PERNIAGAAN SETIA SENTRAL, 14000, BUKIT MERTAJAM, PENANG"
Starbucks,STARBUCKS ECO BOULEVARD,1.4389363,103.6205082,"NO. 84 & 84A JALAN EKO BOTANI 3/2, TAMAN EKO BOTANI, 79100, ISKANDAR PUTERI, JOHOR"
Starbucks,STARBUCKS LABUAN AIRPORT LOT,5.2946632,115.2492716,"NO. L1L06, LEVEL 1, LABUAN AIRPORT, JALAN TUN MUSTAPHA, TAMAN SEC AIRPORT, 87015, LABUAN"
Starbucks,STARBUCKS MITSUI OUTLET PARK,2.7801118,101.6774878,"G65, GROUND FLOOR, MITSUI OUTLET PARK KLIA SEPANG, PERSIARAN KOMERSIAL, 64000 KLIA, SEPANG, SELANGOR"
Starbucks,STARBUCKS BATU FERRINGHI,5.473747299999999,100.2467596,"NO. 69, JALAN BATU FERRINGHI, 11000 BATU FERRINGHI, PENANG"
Starbucks,STARBUCKS TIN VILLAGE KAMPAR,4.3280891,101.146982,"LOT NO. 5&6, GROUND FLOOR, TIN VILLAGE MALL,31900 KAMPAR, PERAK"
Starbucks,STARBUCKS MBC TOWER,3.1551486,101.6952541,"MENARA BUMIPUTRA COMMERCE,NO.11, JALAN RAJA LAUT,50100 KUALA LUMPUR"
Starbucks,STARBUCKS IMPERIAL CITY MALL,4.4004328,113.9903458,"PICM-GF11, PICM-GF11A & PICM-GF11B, GROUND FLOOR, PERMAISURI IMPERIAL CITY MALL, JALAN MERPATI, 98000 MIRI, SARAWAK."
Starbucks,STARBUCKS MELAKA RAYA,2.189114,102.2534362,"NO. 161 JALAN MERDEKA, TAMAN MELAKA RAYA, 75000 MELAKA."
Starbucks,STARBUCKS MIRI AIRPORT,4.322991399999999,113.9874165,"LOT NO. GL 14, PUBLIC CONCOURSE, GROUND LEVEL, MIRI AIRPORT, 98000 MIRI, SARAWAK"
Starbucks,STARBUCKS BINTANG PLAZA MIRI,4.3970478,113.9932847,"LOT G47 & G39A, GROUND FLOOR, BINTANG PLAZA SHOPPING PLAZA, JALAN BINTANG, 98000 MIRI ,SARAWAK."
Starbucks,STARBUCKS KLIA SATELLITE,2.7417476,101.7015569,"LOT NO. SAT-M-20, MEZZANINE LEVEL, SATELLITE BUILDING, KUALA LUMPUR INTERNATIONAL AIRPORT, 64000 SEPANG, SELANGOR"
Starbucks,STARBUCKS TTDI,3.1394458,101.6301767,"NO. 20G, A & B, JALAN TUN MOHD FUAD 1, TAMAN TUN DR ISMAIL, 60000 KUALA LUMPUR."
Starbucks,STARBUCKS TAMAN CONNAUGHT,3.080732,101.73264,"2, GROUND FLOOR, JALAN MENARA GADING 1, TAMAN CONNAUGHT, 56000 CHERAS, KUALA LUMPUR."
Starbucks,STARBUCKS WISMA UOA,3.1523198,101.7122418,"19-1-2, GROUND FLOOR, UOA CENTRE, NO.19, JALAN PINANG, 50450 KUALA LUMPUR."
Starbucks,STARBUCKS AMPANG DT,3.1593169,101.7433384,"LOT 4258 & 4259, JALAN AMPANG, 50450 KUALA LUMPUR"
Starbucks,STARBUCKS GENTING PERMAI DT,3.3871055,101.7738941,"LOT 21078, JALAN PERMAI 2, GENTING PERMAI AVENUE, 69000 GENTING HIGHLANDS,PAHANG"
Starbucks,STARBUCKS PETRONAS LINGKARAN KARAK DT,3.3699111,101.8565525,"LOT PT, 6075 H.S(M), LEBUHRAYA KUALA LUMPUR - KARAK, 68100, MUKIM SETAPAK, DAERAH GOMBAK, SELANGOR"
Starbucks,STARBUCKS PETRONAS PLUS DT,3.0487436,101.6798522,"STESEN MINYAK PETRONAS, KM305 PLUS ARAH SELATAN 43300 SERDANG, MUKIM KAJANG, DAERAH HULU LANGAT, SELANGOR."
Starbucks,STARBUCKS PANTAI HOSPITAL AYER KEROH,2.2373565,102.2872978,"ANCHOR TENANT 1 (AT1), GROUND FLOOR, BLOCK D, PANTAI HOSPITAL AYER KEROH, NO. 2418-A, KM 8, LEBUH AYER KEROH, 75450 MELAKA."
Starbucks,STARBUCKS DANAU KOTA DT,3.2053459,101.7163442,"UNIT SHOP 17, THE PALETTE HAB KOMERSIAL DANAU KOTA, NO. 8, JALAN LANGKAWI, TAMAN DANAU KOTA, 53000 SETAPAK, KUALA LUMPUR"
Starbucks,STARBUCKS PAVILION BUKIT JALIL,3.0507484,101.6707223,"LOT 3.114 & E3.114, LEVEL 3, PAVILION BUKIT JALIL, PERSIARAN JALIL UTAMA, BUKIT JALIL, 57000, KUALA LUMPUR"
Starbucks,STARBUCKS HUKM,3.099267,101.7254018,"LOT(S) 10 & 11, VISITORS LOBBY, HOSPITAL CANSELOR TUNKU MUKHRIZ HCTM (FORMERLY KNOWN AS HOSPITAL UNIVERSITI KEBANGSAAN MALAYSIA), CHERAS, 56000 KUALA LUMPUR"
Starbucks,STARBUCKS KANGAR JAYA DT,6.4070754,100.1821593,"NO. 1A JALAN KANGAR JAYA 14, KANGAR JAYA, JALAN TUANKU SYED PUTRA (JALAN KANGAR - ALOR SETAR), 01000 KANGAR, PERLIS"
Starbucks,STARBUCKS TANJUNG MALIM,3.7425977,101.5329676,"SHOP 4, GROUND FLOOR & 1ST FLOOR, LOT 232, JALAN TANJONG TANJONG MALIM PROTON CITY, MUKIM HULU BERNAM TIMOR, DAERAH MUALLIM, PERAK DARUL RIDZUAN"
Starbucks,STARBUCKS CALTEX MELAWATI,3.21102,101.752196,"CALTEX TAMAN MELAWATI, LOT 14855, JALAN BANDAR 4, TAMAN MELAWATI, 53100 KUALA LUMPUR"
Starbucks,STARBUCKS TAPAH R&R (SB),4.1791013,101.2909547,"LOT TPHSB-C05, TAPAH RSA SOUTHBOUND, LEBUHRAYA UTARA-SELATAN, 35000 TAPAH, PERAK"
Starbucks,STARBUCKS PENANG INTERNATIONAL AIRPORT (DOMESTIC),5.2914252,100.2649668,"LOT L2AFB08, DOMESTIC AIRSIDE PENANG INTERNATIONAL AIRPORT, BAYAN LEPAS, 11900 PENANG, PULAU PINANG."
Starbucks,STARBUCKS PENANG INTERNATIONAL AIRPORT (INTERNATIONAL),5.2914252,100.2649668,"LOT L2AFB12B, LEVEL 2, INTERNATIONAL DEPARTURE (AIRSIDE), PENANG INTERNATIONAL AIRPORT, BAYAN LEPAS, 11900 PENANG."
Starbucks,STARBUCKS MENARA ETIQA,3.1273668,101.6785511,"LOT 1.1, MENARA ETIQA, NO.3, JALAN BANGSAR UTAMA 1, 59000 KUALA LUMPUR"
Starbucks,STARBUCKS SEGAMAT SRI UTAMA,2.5144019,102.8231893,"LOT 25, JALAN UTAMA 3/2, PUSAT KOMERSIAL SRI UTAMA, 85000 SEGAMAT, JOHOR"
Starbucks,STARBUCKS RESERVE BERJAYA TIMES SQUARE,3.1425177,101.7103847,"LOT NO. G-09A, GROUND FLOOR, BERJAYA TIMES SQUARE, NO.1, JALAN IMBI, 55100 KUALA LUMPUR, MALAYSIA."
Starbucks,STARBUCKS KSL RESORT,1.4858456,103.762422,"LOT G-H01 / H01A KSL RESORT LOBBY, GROUND FLOOR, KSL CITY, NO. 33, JALAN SELADANG, TAMAN ABAD, 80250 JOHOR BAHRU"
Starbucks,STARBUCKS DANGA BAY,1.5474042,103.7071043,"SALES GALLERY, LOT PTB 22056, DANGA BAY, JALAN SKUDAI, 80200 JOHOR BAHRU, JOHOR"
Starbucks,STARBUCKS NU SENTRAL,3.132303,101.6867157,"LEVEL LG3, MENARA ALLIANZ SENTRAL, NO. 203, JALAN TUN SAMBANTHAN, KUALA LUMPUR SENTRAL, 50470 KUALA LUMPUR"
Starbucks,STARBUCKS TPM DT,3.0549949,101.7042705,"WISMA SCOPE INTERNATIONAL,PT15084, JALAN TEKNOLOGI MALAYSIA,TAMAN TEKNOLOGI MALAYSIA,57000 KUALA LUMPUR"
Starbucks,STARBUCKS SUNWAY TAMBUN DT,4.6413935,101.1532421,"PART OF LOT HS(D) KA 72917, PT146136 (PLOT 10) OF MUKIM HULU KINTA, DAERAH KINTA, 31150 IPOH, PERAK"
Starbucks,STARBUCKS AEON TAIPING,4.8728469,100.7298124,"LOT G08, GROUND FLOOR, AEON MALL TAIPING, JALAN KAMUNTING, 34600 TAIPING, PERAK"
Starbucks,STARBUCKS LOTUS'S TEBRAU DT,1.5477742,103.7935549,"LOT NO. G7 & G8, GROUND FLOOR, LOTUS'S DESA TEBRAU, NO 1,PERSIARAN DESA TEBRAU, TAMAN DESA TEBRAU, 81100 JOHOR BAHRU."
Starbucks,STARBUCKS RESERVE SETIA ALAM DT,3.1017249,101.4447507,"LOT NO. 4, PERSIARAN SETIA IMPIAN, BANDAR SETIA ALAM, SEKSYEN U 13, 40170 SHAH ALAM, SELANGOR."
Starbucks,STARBUCKS CAMERON HIGHLANDS,4.470611,101.376639,"UNIT NO. 22 & 23, GROUND FLOOR & 1ST FLOOR ,TANAH RATA CAMERON HIGHLANDS, 39000 PAHANG DARUL MAKMUR"
Starbucks,STARBUCKS KUCHING INTERNATIONAL AIRPORT,1.4871226,110.3415986,"LOT L3L 07, 08 & 09, LEVEL 3, DEPARTURE HALL (PUBLIC CONCOURSE) KUCHING INTERNATIONAL AIRPORT, JALAN LAPANGAN TERBANG, 93722 KUCHING, SARAWAK."
Starbucks,STARBUCKS SUNWAY CARNIVAL,5.3986313,100.3980421,"LOT NO UG 27, UPPER GROUND FLOOR, SUNWAY CARNIVAL MALL 3068, JALAN TODAK PUSAT BANDAR SEBERANG JAYA 13700 SEBERANG JAYA, PENANG"
Starbucks,STARBUCKS RESERVE GURNEY PLAZA,5.436241799999999,100.3093044,"UNIT 170-G-39, GURNEY PLAZA, PERSIARAN GURNEY, 10250 PENANG, MALAYSIA."
Starbucks,STARBUCKS MANSION ONE,5.4274188,100.320429,"PART OF LOT 57-G-01, MANSION ONE, JALAN SULTAN AHMAD SHAH, 10050 PENANG"
Starbucks,STARBUCKS BAMBOO HILL DT,3.2085818,101.7104015,"P1-1, TAMAN BUKIT BAMBU, OFF LEBUHRAYA DUTA - ULU KELANG, TAMAN BAMBOO, 51200 KUALA LUMPUR"
Starbucks,STARBUCKS SS2,3.118488,101.623116,"3, SS2/67, TAMAN SEA, 47300 PETALING JAYA, SELANGOR"
Starbucks,STARBUCKS BERJAYA HILLS,3.4009144,101.839573,"LA GRANDE, BERJAYA HILLS RESORT, KM48 PERSIMPANGAN BERTINGKAT, LEBUHRAYA KARAK, 28750 BUKIT TINGGI, PAHANG"
Starbucks,STARBUCKS TROPIKA BUKIT JALIL,3.0530535,101.6780048,"LOT NO G-05, GROUND FLOOR, E-G-5 TROPIKA BUKIT JALIK, JALAN JALIL PERKASA 3, BUKIT JALIL, 57000 KUALA LUMPUR"
Starbucks,STARBUCKS ECO HORIZON DT,5.2364418,100.4440799,"NO 1, JALAN BOREALIS 4, PUSAT KOMERSIAL BOREALIS, 14110 BANDAR CASSIA, PENANG"
Starbucks,STARBUCKS CHIN SWEE,3.4128753,101.7886365,"LOT L12-S1, LEVEL 12, LOBBY FLOOR, GOH TONG HALL, CHIN SWEE CAVES TEMPLE, GENTING HIGHLANDS RESORTS, PAHANG"
Starbucks,STARBUCKS PORT DICKSON DT,2.5208366,101.8000423,"PORT OF HS(D) 8376 PT 74, PERSIARAN WATERFRONT, PD WATERFRONT, 71000 PORT DICKSON, NEGERI SEMBILAN"
Starbucks,STARBUCKS GLENEAGLES,3.1611991,101.7391625,"GROUND FLOOR (GARDEN AREA), GLENEAGLES HOSPITAL KUALA LUMPURNO.286, JALAN AMPANG, 50450 KUALA LUMPUR."
Starbucks,STARBUCKS AEON SEREMBAN 2,2.700705,101.9122163,"LOT G49 & 50, JUSCO SEREMBAN 2 SHOPPING CENTRE, NO.112, PERSIARAN S2 B1, SEREMBAN 2, 70300 SEREMBAN, NEGERI SEMBILAN."
Starbucks,STARBUCKS AEON KEPONG,3.2130859,101.6389548,"LOT G36, GROUND FLOOR, AEON METRO PRIMA SHOPPING CENTRE, JALAN KEPONG, 52100 KUALA LUMPUR,"
Starbucks,STARBUCKS CHANGLUN DT,6.437689199999999,100.4307512,"NO. 141, SUSURAN PKC, PUSAT KOMERSIAL CHANGLUN, 06010 CHANGLUN, KEDAH"
Starbucks,STARBUCKS BANTING BUSINESS CENTRE,2.8137544,101.5078006,"NO. 1-G, JALAN CEMERLANG, 1A, PUSAT PERDAGANGAN BANTING, BANTING 42700, SELANGOR"
Starbucks,STARBUCKS RIMBAYU DT,2.8388413,101.5702813,"PART OF LOT 36309, MUKIM TANJONG DUABELAS, KUALA LANGAT,SELANGOR, MALAYSIA"
Starbucks,STARBUCKS SHAFTSBURY AVENUE DT,2.9387596,101.7133118,"G-12, GROUND FLOOR, SHAFTSBURY PUTRAJAYA, PRESINT 1, BANDAR PUTRAJAYA, DISTRICT OF PUTRAJAYA, 62100, WILAYAH PERSEKUTUAN PUTRAJAYA"
Starbucks,STARBUCKS SEREMBAN 2 DT,2.6875251,101.9067683,"LOT 50800, PERSIARAN UTAMA S2-3, PUSAT DAGANGAN SECTION B SEREMBAN 2, SEREMBAN, NEGERI SEMBILAN"
Starbucks,STARBUCKS PETRON CHERAS DT,3.1082731,101.7304396,"NO. 1A, STARBUCKS KAFETERIA, LOT 27680A, JALAN CHERAS, TAMAN SEGAR, 56100 KUALA LUMPUR"
Starbucks,STARBUCKS BERJAYA CENTRAL PARK,3.1592155,101.7096845,"LOT 1-1-1A, MENARA BANGKOK BANK, LAMAN SENTRAL BERJAYA, NO.1, JALAN AMPANG, 50450 KUALA LUMPUR"
Starbucks,STARBUCKS BATU PAHAT DT,1.8667298,102.9484292,"PTD 48032, PERSIARAN FLORA UTAMA, TAMAN FLORA UTAMA, 83000 BATU PAHAT, JOHOR"
Starbucks,STARBUCKS MARINA PARK CITY DT,4.3893157,113.981068,"LOT 2255, JALAN MARINA 3, MARINA PARKCITY, 98000 MIRI, SARAWAK"
Starbucks,STARBUCKS BANDAR SERI ALAM DT,1.4964183,103.8718459,"NO. 8, JALAN SURIA, BANDAR SERI ALAM, 81750 JOHOR BAHRU"
Starbucks,STARBUCKS MINES CITY DT,3.0290966,101.7180636,"L3-19AP, LEVEL 3, THE MINES JALAN DULANG, MINES CITY RESORT, SERI KEMBANGAN 43300, SELANGOR"
Starbucks,STARBUCKS KOTA KINABALU INTERNATIONAL AIRPORT LANDSIDE,5.9843644,116.077344,"L1L10, LEVEL 1 LANDSIDE), TERMINAL 1, 88740 KOTA KINABALU, SABAH"
Starbucks,STARBUCKS KOTA LAKSAMANA DT,2.2034004,102.2201069,"BANGUNAN STARBUCKS,TAMAN LIMBONGAN INDAH, 75200 MELAKA"
Starbucks,STARBUCKS ICON CITY DT,5.3451925,100.4348009,"GROUND & MEZZANINE FLOOR, NO. 1, JALAN ICON CITY, ICON CITY, 14000 BUKIT MERTAJAM, PENANG"
Starbucks,STARBUCKS SUNWAY PINNACLE,3.0701823,101.6100486,"GROUND FLOOR, THE PINNACLE, PERSIARAN LAGOON, BANDAR SUNWAY, 46150 PETALING JAYA, SELANGOR"
Starbucks,STARBUCKS SURIA SABAH,5.9867933,116.0775039,"G-2 & G-69 GROUND FLOOR, SURIA SABAH SHOPPING MALL, 88000 KOTA KINABALU, SABAH."
Starbucks,STARBUCKS 3 TWO SQUARE,3.1112961,101.6319838,"C-17-01, DATARAN 32, NO.2, JALAN 19/1 , 46300 PETALING JAYA, SELANGOR, MALAYSIA"
Starbucks,"STARBUCKS METRO POINT, KAJANG",2.9916367,101.793722,"LOT G19 & G30, GROUND FLOOR,METRO POINT COMPLEX,SEKSYEN 7, BANDAR KAJANG,DAERAH ULU LANGAT,43000 SELANGOR."
Starbucks,"STARBUCKS WARISAN SQUARE, KK",6.0137965,116.112973,"LOT NO.8 GROUND & 1ST FLOOR BLOCK C WARISAN SQUARE, JALAN FUAD STEPHEN 88000 KOTA KINABALU,SABAH"
Starbucks,STARBUCKS JURU AUTOCITY,5.337129099999999,100.428293,"1821-G1, JALAN PERUSAHAAN, HIGHWAY AUTO-CITY PRAI INDUSTRIAL ESTATE, 13600 PERAI, PENANG."
Starbucks,STARBUCKS GREAT EASTERN MALL,3.1600725,101.7369013,"LOT 13 & 14, GROUND FLOOR, GREAT EASTERN MALL, NO.303, JALAN AMPANG, 50450 KUALA LUMPUR, MALAYSIA."
Starbucks,STARBUCKS IOI CITY MALL 2,2.9697296,101.7163514,"GE-209 & GE-ES-209 GROUND FLOOR, IOI CITY MALL PHASE 2, LEBUH IRC, IOI RESORT CITY,62502 PUTRAJAYA, MALAYSIA"
Starbucks,STARBUCKS LOTUS'S KEPONG DT,3.1926747,101.6327952,"G1&G2, LOTUS'S KEPONG, NO.3 JALAN 7A/62A,BANDAR MANJALARA,52200, KUALA LUMPUR, MALAYSIA"
Starbucks,STARBUCKS PETRONAS SKUDAI R&R DT (NB),1.5055481,103.6269902,"PETRONAS STATION R&R SKUDAI ARAH UTARA, PLOT 10, KAWASAN R&R PLUS SKUDAI ARAH UTARA, SKUDAI, 81300 JOHOR"
Starbucks,STARBUCKS JADE HILL,2.9227605,101.7841189,"PERSIARAN PUNCAK UTAMA, JADE HILLS, 43000 KAJANG, SELANGOR DARUL EHSAN"
Starbucks,STARBUCKS CONEZION PUTRAJAYA DT,2.966164,101.7209495,"BLOK A1, CONEZION, IOI RESORT CITY, 62502 PUTRAJAYA"
Starbucks,STARBUCKS BANGI AVENUE DT,2.8981423,101.7911397,"NO. LOT PT 78464, JALAN BANGI AVENUE 5, BANGI AVENUE, 43000 KAJANG, SELANGOR"
Starbucks,STARBUCKS BMC MALL,3.0549881,101.7872392,"G.22 & G.22L, BMC MALL, JALAN TEMENGGUNG 21/9, BANDAR MAHKOTA CHERAS, 43200 CHERAS, SELANGOR"
Starbucks,STARBUCKS SIMPANG AMPAT DT,5.2835499,100.4762989,"2A, JALAN ICONIC POINT, ICONIC POINT, 14100 SIMPANG AMPAT, PENANG."
Starbucks,STARBUCKS SIBU AIRPORT,2.2561854,111.9861763,"LOT NO. GFL07 & GFL09, GROUND FLOOR, PUBLIC CONCOURSE (LANDSIDE), SIBU AIRPORT, 96000 SARAWAK"
Starbucks,STARBUCKS SIBU PEDADA,2.2893743,111.8333363,"LOT 3047, BLOCK 3, JALAN PEDADA, 96000 SIBU, SARAWAK"
Starbucks,STARBUCKS CENTREPOINT BANDAR UTAMA,3.1382956,101.609743,"LOT G109 & G110, GROUND FLOOR, LEBUH BANDAR UTAMA, BANDAR UTAMA, 47800 PETALING JAYA, SELANGOR"
Starbucks,STARBUCKS SANDAKAN DT,5.8651434,118.0573715,"LOT 1, PHASE 2, UTAMA PLACE 3, MILE 6, BANDAR UTAMA, OFF JALAN UTARA, 90000 SANDAKAN, SABAH"
Starbucks,STARBUCKS AEON RAWANG,3.3160466,101.5374421,"LOT G62, GROUND FLOOR, KOMPLEX BELI BELAH AEON ANGGUN RAWANG, NO. 1, PERSIARAN ANGGUN, TAMAN ANGGUN, 48000 RAWANG, SELANGOR DARUL EHSAN."
Starbucks,STARBUCKS AEON MALURI,3.125586,101.728076,"LOT G33, GROUND FLOOR, TAMAN MALURI SHOPPING CENTRE, JALAN JEJAKA, CHERAS 55100 KUALA LUMPUR, MALAYSIA."
Starbucks,STARBUCKS IOI MALL PUCHONG,3.0449441,101.6180882,"LOT G00, FRONT ENTRANCE, GROUND FLOOR, IOI MALL, BATU 9, BANDAR PUCHONG JAYA, 47100 PUCHONG, SELANGOR, MALAYSIA."
Starbucks,STARBUCKS RESERVE MID VALLEY,3.1175628,101.6774073,"G-076-079, GROUND FLOOR, MID VALLEY MEGAMALL, 59200 KUALA LUMPUR"
Starbucks,STARBUCKS BANDAR PUTERI DT,3.0194342,101.6249088,"LOT TC-05, IOI GALLERIA @ THE CUBE, NO. G-2, JALAN PUTERI 7/13A BANDAR PUTERI, 47100 PUCHONG, SELANGOR."
Starbucks,STARBUCKS JESSELTON POINT KK,5.9887991,116.078363,"LB-02, GROUND FLOOR, JESSELTON DUTY FREE MALL, 88000 KOTA KINABALU, SABAH"
Starbucks,STARBUCKS PETRONAS KOTA DAMANSARA,3.149731,101.579905,"PETRONAS STATION KOTA DAMANSARA NO 30, JALAN TEKNOLOGI, SEKSYEN 2, PJU5 KOTA DAMANSARA, 47810 PETALING JAYA, SELANGOR"
Starbucks,STARBUCKS BANGSAR VILLAGE 1,3.1307564,101.6713416,"NO. G7, GROUND FLOOR, BANGSAR VILLAGE SHOPPING CENTRE, JALAN TELAWI 1, BANGSAR BARU, 59100 KUALA LUMPUR, MALAYSIA."
Starbucks,STARBUCKS THE CURVE,3.1577484,101.611405,"G88, GROUND FLOOR, THE CURVE, MUTIARA DAMANSARA, 47800 PETALING JAYA, SELANGOR."
Starbucks,STARBUCKS IMAGO TIMES SQUARE,5.9708621,116.0663544,"LOT G33B & G33C, GROUND FLOOR, IMAGO, KK TIMES SQUARE, OFF COASTAL HIGHWAY, 88100 KOTA KINABALU, SABAH"
Starbucks,STARBUCKS RESERVE BANDAR UTAMA,3.1489857,101.6161328,"LOT G139A, GROUND FLOOR, 1UTAMA SHOPPING CENTRE, BANDAR UTAMA, 47800 PETALING JAYA"
Starbucks,STARBUCKS GENTING 1,3.4255624,101.7945541,"T1, LOT F/L 1.4, FIRST WORLD HOTEL, GENTING HIGHLANDS RESORT, 69000 PAHANG"
Starbucks,STARBUCKS SUNWAY PUTRA MALL,3.1664256,101.6924194,"LOT NO. G-6, GROUND FLOOR, SUNWAY PUTRA MALL, NO. 100, JALAN PUTRA, 50350 KUALA LUMPUR"
Starbucks,STARBUCKS KL SENTRAL,3.1338374,101.6854513,"UNIT 5, ARRIVAL HALL, KL SENTRAL, 50470 KUALA LUMPUR., MALAYSIA."
Starbucks,STARBUCKS RESERVE SUNWAY PYRAMID,3.0731724,101.6075559,"LOT G1.129, OB3.G.1 & OB3.G.2, GROUND FLOOR, OASIS BOULEVARD, SUNWAY PYRAMID SHOPPING MALL, NO. 3, JALAN PJS 11/15, BANDAR SUNWAY, 47500 SELANGOR"
Starbucks,STARBUCKS NUSA BESTARI,1.4817848,103.6650982,"36, JALAN BESTARI 2/2, TAMAN NUSA BESTARI, 81300 SKUDAI, JOHOR"
Starbucks,STARBUCKS SUNGAI BULOH OBR,3.1660532,101.5696139,"LOT 12, RESTORAN JEJANTAS SG BULOH (ARAH SELATAN), KM458.3, LEBUHRAYA SG BULOH  TG MALIM, 47000 SG BULOH, SELANGOR."
Starbucks,STARBUCKS KUALA TERENGGANU AIRPORT (INTERNATIONAL LANDSIDE),5.378860599999999,103.1053028,"LOT NO. L1L12, LEVEL 1 (LANDSIDE), SULTAN MAHMUD AIRPORT, 21300 KUALA TERENGGANU"
Starbucks,STARBUCKS MESA MALL DT,2.8249092,101.7774146,"G-02, PUSAT MEMBELI-BELAH MESA, PUSAT PERNIAGAAN & RESIDENSI MESA, PERSIARAN ILMU, PUTRA NILAI, 71800 NILAI, NEGERI SEMBILAN"
Starbucks,STARBUCKS SENAI AIRPORT,1.6358957,103.6658887,"LOT S11, AEROMALL, SENAI INTERNATIONAL AIRPORT, 81250 JOHOR BAHRU, JOHOR"
Starbucks,STARBUCKS MUAR BAKRI,2.0478986,102.5910398,"LOT NO. PTB 16019, GROUND FLOOR JALAN BAKRI, 84000 MUAR, JOHOR"
Starbucks,STARBUCKS CITTA MALL,3.1121867,101.5790712,"LOT NO. G-15, GROUND FLOOR, CITTA MALL, NO. 1, JALAN PJU 1A/48, PJU 1A, ARA DAMANSARA, 47301 PETALING JAYA, SELANGOR"
Starbucks,STARBUCKS MENARA BINJAI,3.1583866,101.7183,"UNIT NO. G-02, GROUND FLOOR, MENARA BINJAI, NO.2, JALAN BINJAI, 50450 KUALA LUMPUR"
Starbucks,STARBUCKS AEON KULAIJAYA,1.6405852,103.6170961,"LOT G68, GROUND FLOOR, AEON MALL KULAIJAYA, PTD 106273, PERSIARAN INDAHPURA UTAMA, BANDAR INDAHPURA, 81000 KULAIJAYA, JOHOR"
Starbucks,STARBUCKS AMPANG POINT,3.1577567,101.7511395,"LOT G20A, GROUND FLOOR,AMPANG POINT SHOPPING CENTRE,JALAN MAMANDA 3,68000 AMPANG, SELANGOR."
Starbucks,STARBUCKS AEON BUKIT INDAH,1.4817523,103.6557625,"LOT G08, GROUND FLOOR, AEON BUKIT INDAH SHOPPING CENTRE ,NO.8 JALAN INDAH 15/2, BUKIT INDAH, 81200 JOHOR BHARU, JOHOR"
Starbucks,STARBUCKS SUBANG SKYPARK,3.1281595,101.5523155,"LOT G12,& G13, AND LOT G12S & G13S, TERMINAL 3, SULTAN ABDUL AZIZ SALAHUDDIN AIRPORT, JALAN LAPANGAN TERBANG SAAS, 47200 SUBANG, SELANGOR,MALAYSIA"
Starbucks,STARBUCKS KOTA DAMANSARA,3.1527465,101.5933607,"NO.1 GROUND FLOOR JALAN PJU 5/11 DATARAN SUNWAY,KOTA DAMANSARA,47810 PETALING JAYA, SELANGOR."
Starbucks,STARBUCKS SUNWAY ISKANDAR DT,1.3946643,103.634393,"MEDINI ZONE F, PTD 200670, JALAN MEDINI SELATAN 1, SUNWAY ISKANDAR, BANDAR MEDINI ISKANDAR, 79250 ISKANDAR PUTERI, JOHOR."
Starbucks,STARBUCKS PETRONAS ULU BERNAM DT (SB),3.674364,101.5225481,"PETRONAS STATION ULU BERNAM, KM 124, KAWASAN REHAT & RAWAT, LEBUHRAYA UTARA SELATAN (PLUS), ARAH SELATAN, 35800 ULU BERNAM, SELANGOR"
Starbucks,STARBUCKS SENTUL POINT,3.2019041,101.6893619,"A-G-18, SENTUL POINT, NO 8, JALAN SENTUL PASAR, SENTUL, 51000 KUALA LUMPUR"
Starbucks,STARBUCKS SRI PINANG DT,5.402896,100.3224734,"LOT L1-1, L1-2, L1-3 & L2-1, MARITIME, NO.29C, LEBUH SUNGAI PINANG5, JELUTONG 11600 GEORGETOWN, PENANG, MALAYSIA"
Starbucks,STARBUCKS PETRONAS BAYU SENIBONG DT,1.488819,103.8070951,"LOT PTD 173047, TAMAN BAYU SENIBONG,MUKIM PLENTONG, MASAI, JOHOR BAHRU,81750 JOHOR."
Starbucks,STARBUCKS KLIA 2 LANSIDE,2.7447148,101.6851931,"LOT NO. S2-3-LO1, DEPARTURE LEVEL, PUBLIC CONCOURSE, TERMINAL LANDSIDE, KUALA LUMPUR INTERNATIONAL AIRPORT 2, 64000 SEPANG, SELANGOR"
Starbucks,STARBUCKS GENTING 3,3.4240849,101.7907212,"LOT H/LG 6.00, LEVEL LOWER GROUND, HIGHLANDS HOTEL, 69000 GENTING HIGHLANDS, PAHANG, MALAYSIA."
Starbucks,STARBUCKS PETRONAS FEDERAL HIGHWAY DT,3.1057445,101.6452137,"KM 18.5, FEDERAL HIGHWAY - KL BOUND, 41050 KUALA LUMPUR."
Starbucks,STARBUCKS TELUK INTAN,4.020219000000001,101.023258,"NO.1, 1A & 1B, JALAN INTAN 2, BANDAR BARU TELUK INTAN, 36000 TELUK INTAN, PERAK."
Starbucks,STARBUCKS WANGSA WALK,3.1994259,101.7424928,"LOT G-26 & AG-26, GROUND FLOOR, WANGSA WALK MALL, WANGSA AVENUE, NO.9, JALAN WANGSA PERDANA 1, BANDAR WANGSA MAJU, 53300 KUALA LUMPUR"
Starbucks,STARBUCKS PLATINUM PARK,3.1553831,101.7185413,"UNIT 1.2, MENARA FELDA, PLATINUM PARK, NO.11, PERSIARAN KLCC, 58200, KUALA LUMPUR"
Starbucks,STARBUCKS EMPIRE GALLERY SUBANG,3.0817783,101.5828038,"G28, EMPIRE SHOPPING GALLERY, JALAN SS16/1, JALAN SS16, 47500 SUBANG JAYA, SELANGOR"
Starbucks,STARBUCKS KLIA 2 AIRSIDE,2.7447148,101.6851931,"LOT NO. S1-1-A-A02, DOMESTIC DEPARTURE AND ARRIVAL LEVEL, KUALA LUMPUR INTERNATIONAL AIRPORT 2, 64000 SEPANG, SELANGOR"
Starbucks,STARBUCKS PRIMA 5 DT,2.922039,101.655898,"PRIMA 5C, PRIMA AVENUE, BLOCK 3505, JALANTEKNOKRAT 5, 63000 CYBERJAYA, SELANGOR."
Starbucks,STARBUCKS SETIA TROPIKA DT,1.5487705,103.7176182,"NO.8B JALAN SETIA TROPIKA 1/21, TAMAN SETIA TROPIKA, 81200 JOHOR BAHRU,JOHOR."
Starbucks,STARBUCKS AVENUE K,3.1594766,101.7135149,"G-7, GROUND FLOOR, AVENUE K, 156 JALAN AMPANG, 50450 KUALA LUMPUR."
Starbucks,STARBUCKS AMANJAYA DT,5.672070199999999,100.5079435,"NO.3, JALAN CEMPAKA 2/3, AMANJAYA SQUARE, 08000 SUNGAI PETANI, KEDAH DARUL AMAN"
Starbucks,STARBUCKS RESERVE THE GARDENS MID VALLEY,3.1204246,101.6777001,"LOT S-226B SECOND FLOOR , MID VALLEY CITY GARDENS, NO.1 MEDAN SYED PUTRA UTARA, 59200 KUALA LUMPUR."
Starbucks,STARBUCKS INTERMARK,3.1613001,101.7199536,"LOT G-02 & G-03B, GROUND FLOOR, INTERMARK MALL, THE INTERMARK, 348, JALAN TUN RAZAK, 50400 KUALA LUMPUR"
Starbucks,STARBUCKS MEGAMALL KUANTAN,3.8157144,103.3301245,"LOT G15, GROUND FLOOR, BERJAYA MEGAMALL, JALAN TUN ISMAIL, SRI DAGANGAN, 25000 KUANTAN, PAHANG, MALAYSIA."
Starbucks,STARBUCKS RESERVE SOUTHKEY MEGAMALL,1.4988689,103.7788849,"G-002, GROUND FLOOR, SOUTHKEY MEGAMALL, KEM MAJIDEE, JOHOR BAHRU,"
Starbucks,STARBUCKS KIARA BAY DT,3.2265544,101.6501604,"R-23, GROUND FLOOR, KIARA BAY, MRR2 KEPONG METROPOLITAN PARK, 52100 KUALA LUMPUR"
Starbucks,STARBUCKS KUANTAN INDERA MAHKOTA DT,3.834160199999999,103.2999812,"STARBUCKS COFFEE DRIVE-THRU, JALAN IM 7/14, BANDAR INDERA MAHKOTA, 25200 KUANTAN, PAHANG"
Starbucks,STARBUCKS ANSA HOTEL,3.1467311,101.7120145,"LOT 0.3, GROUND FLOOR, PICCOLO HOTEL, 101, JALAN BUKIT BINTANG, 55100 KUALA LUMPUR"
Starbucks,STARBUCKS TELUK CEMPEDAK,3.812601,103.3720031,"LOT NO. 1&2, PUSAT REKREASI, TELUK CEMPEDAK, JALAN TENGKU ABU BAKAR, 25050 KUANTAN, PAHANG"
Starbucks,STARBUCKS EAST COAST MALL,3.818357499999999,103.3262428,"UNIT GF-06, GROUND FLOOR, EAST COAST MALL, JALAN PUTRA SQUARE 6, PUTRA SQUARE, 25200 KUANTAN, PAHANG"
Starbucks,STARBUCKS PAVILION 2,3.1489607,101.7134125,"LOT NO.6.02.00 LEVEL 6, PAVILION KUALA LUMPUR, 168 JALAN BUKIT BINTANG, 55100 KUALA LUMPUR"
Starbucks,STARBUCKS PAVILION 1,3.1489607,101.7134125,"LOT C 3.08.00 & C3.09.00, LEVEL 3 PAVILION KUALA LUMPUR, 168 JALAN BUKIT BINTANG, 55100 KUALA LUMPUR."
Starbucks,STARBUCKS BURMA ROAD,5.4318222,100.3110099,"NO. 403-A, JALAN BURMAH, 10350 PENANG, MALAYSIA"
Starbucks,STARBUCKS QUILL CITY MALL,3.1598664,101.7000562,"G-13, GROUND FLOOR, Q-CITY MALL, JALAN SULTAN ISMAIL KUALA LUMPUR 50250, WILAYAH PERSEKUTUAN KUALA LUMPUR"
Starbucks,STARBUCKS AEON BUKIT MERTAJAM,5.3259012,100.4778013,"LOT G08 & G08A, AEON BUKIT MERTAJAM, JALAN ROZHAN, ALMA, 14000 BIKIT MERTAJAM, PULAU PINANG, MALAYSIA"
Starbucks,STARBUCKS TAMAN MOLEK,1.5198726,103.7839302,"LOT NO. 21 (G) & 21-1, JALAN MOLEK 3/20, TAMAN MOLEK, 81100 JOHOR BAHRU"
Starbucks,STARBUCKS THE SHORE,2.2029405,102.2499114,"GF-10, THE SHORE SHOPPING GALLERY, JALAN PERSIARAN BUNGA RAYA, 75300 MELAKA TENGAH, MELAKA"
Starbucks,STARBUCKS ONE CITY,3.0214358,101.581565,"LOT NO. A-GF-03,A-GF-03A & A-GF-03B, GROUND FLOOR, ONE CITY, JALAN USJ 25/1, 47650 SUBANG JAYA, SELANGOR"
Starbucks,STARBUCKS ENCORP STRAND,3.1557437,101.5934042,"LOT G-08 & G-09, GROUND FLOOR, ENCORP STRAND MALL, NO.1 JALAN PJU 5/23, ENCORP STRAND, PUSAT PERDAGANGAN KOTA DAMANSARA PJU5, 47810 PETALING JAYA, SELANGOR"
Starbucks,STARBUCKS MEDAN GOPENG,4.5588627,101.1122967,"LOT 200A, BURGER HOUZ, JALAN RAJA DR. NAZRIN SHAH, 31350 IPOH, PERAK"
Starbucks,STARBUCKS SDMC SUBANG JAYA,3.079682,101.5936488,"LOT G7, GROUND FLOOR, MEDIPLEX, SIME DARBY MEDICAL CENTRE, NO. 1, JALAN SS 12/1A, SS12, SUBANG JAYA, 47500 SELANGOR"
Starbucks,STARBUCKS MAIN PLACE,3.0263123,101.5812839,"THE MAIN PLACE, LOT NO. GF-01, GROUND FLOOR, JALAN USJ 21/10,PERSIARAN KEWAJIPAN,47630 SUBANG JAYA, SELANGOR"
Starbucks,STARBUCKS ATRIA SHOPPING GALLERY,3.1270963,101.6165176,"NO. G39, GROUND FLOOR, ATRIA SHOPPING GALLERY, JALAN 22/23, DAMANSARA JAYA, 47400 PETALING JAYA, SELANGOR"
Starbucks,STARBUCKS KOMTAR JBCC,1.4636718,103.7628597,"LOT NO. 239, LEVEL 2, KOMTAR, JOHOR BAHRU CITY CENTRE, 80000 JOHOR BAHRU, JOHOR"
Starbucks,STARBUCKS SUNWAY KLUANG MALL,2.0400737,103.3205798,"LOT NO. G-10, GROUND FLOOR, KLUANG MALL, JALAN RAMBUTAN, BANDAR KLUANG, 86000 KLUANG, JOHOR."
Starbucks,STARBUCKS KLIA CONTACT PIER,2.752535,101.7059,"LOT NO. CP 20, CONTACT PIER INTERNATIONAL, KL INTERNATIONAL AIRPORT, 64000 KLIA, SELANGOR"
Starbucks,STARBUCKS PUTERI HARBOUR,1.4166916,103.6569844,"LOT 1D, GROUND FLOOR, LITTLE RED CUBE, PERSIARAN PUTERI SELATAN, PUTERI HARBOUR, 79000 NUSAJAYA, JOHOR."
Starbucks,STARBUCKS VIVACITY MEGAMALL,1.5268545,110.3695884,"UNIT G-073B & G-073BS, GROUND FLOOR, VIVACITY MEGAMALL, JALAN WAN ALWI, 93350 KUCHING, SARAWAK"
Starbucks,STARBUCKS SERI AUSTIN DT,1.5774677,103.7484264,"JALAN SERI AUSTIN 1, TAMAN SERI AUSTIN, 81100 JOHOR BAHRU, JOHOR"
Starbucks,STARBUCKS GURNEY PARAGON,5.4357359,100.311185,"LOT G30, GURNEY PARAGON MALL, PERSIARAN GURNEY, 10250 PENANG."
Starbucks,STARBUCKS DA MEN,3.0580052,101.5925509,"LOT G18, GROUND FLOOR, DA MEN, USJ, 47500 SUBANG, SELANGOR"
Starbucks,STARBUCKS RESERVE BUKIT BINTANG JUNCTION,3.1470473,101.7115699,"PART OF GROUND & MEZZ FLOOR, WOLO HOTEL, CORNER OF JALAN BUKIT BINTANG & JALAN SULTAN ISMAIL, BUKIT BINTANG, 55100 KUALA LUMPUR"
Starbucks,STARBUCKS SOHO KL,3.1751772,101.6603153,"UNIT J-0G-01, SOHO KL, SOLARIS MONT KIARA, NO.2, JALAN SOLARIS MONT KIARA,50480 KUALA LUMPUR"
Starbucks,STARBUCKS AEON SERI MANJUNG,4.21575,100.666247,"LOT G65, AEON SERI MANJUNG SHOPPING CENTRE, PUSAT PERNIAGAAN MANJUNG POINT 3, 32040 SERI MANJUNG, PERAK"
Starbucks,STARBUCKS MENARA TA ONE,3.1565305,101.7097635,"GROUND FLOOR, MENARA TA ONE, 22, JALAN P. RAMLEE, 50250 KUALA LUMPUR"
Starbucks,"STARBUCKS PLAZA MERDEKA, KUCHING",1.5581425,110.3439812,"LOT G-46 GROUND FLOOR, PLAZA MERDEKA, 93000 KUCHING, SARAWAK."
Starbucks,STARBUCKS SUNWAY PYRAMID 3,3.0703398,101.6076732,"SP3G001, GROUND FLOOR, SUNWAY PYRAMID 3, NO. 3, JALAN PJS 11/15, BANDAR SUNWAY, 47500 PETALING JAYA, SELANGOR"
Starbucks,STARBUCKS RAJA UDA DT,5.415124899999999,100.3818307,"NO. 7, BUTTERWORTH BUSINESS CITY CENTRE, JALAN RAJA UDA, 12000 BUTTERWORTH, PENANG"
Starbucks,STARBUCKS CENANG MALL,6.2907517,99.72752949999999,"LOT GF1A, GF1B & GF1C CENANG MALL LANGKAWI, LOT 2605 JALAN PANTAI CENANG, MUKIM KEDAWANG, 07000 LANGKAWI, KEDAH."
Starbucks,STARBUCKS WISMA HB,3.1617114,101.7117752,"A-0-1, (FRONT PORTION) GROUND FLOOR, BLOCK A,WISMA HB, MEGAN AVENUE II,12, JALAN YAP KWAN SENG, 50450 KUALA LUMPUR."
Starbucks,STARBUCKS PARADIGM MALL,3.1051171,101.5959701,"LOT NO. GB 01A & GB 16, GROUND FLOOR, PARADIGM MALL, NO. 1, JALAN SS7/26A, KELANA JAYA, 47301 PETALING JAYA, SELANGOR DARUL EHSAN."
Starbucks,STARBUCKS AEON BANDARAYA MELAKA,2.2148518,102.2463583,"LOT G89 & G90, AEON BANDARAYA MELAKA SHOPPING CENTRE, NO. 2, JALAN LEGENDA, TAMAN 1-LAGENDA, 75400 MELAKA."
Starbucks,STARBUCKS JOHOR PREMIUM OUTLETS,1.6028601,103.6215983,"SUITE/LOT 500, JOHOR PREMIUM OUTLETS, JALAN PREMIUM OUTLETS, INDAHPURA, 81000 KULAIJAYA, JOHOR DARUL TAKZIM."
Starbucks,STARBUCKS LOTUS'S BDR BKT PUCHONG DT,2.9824015,101.6174577,"LOT G1, GROUND FLOOR, LOTUS'S BANDAR BUKIT PUCHONG, JALAN BP 17/1, BANDAR BUKIT PUCHONG, 47120 SELANGOR"
Starbucks,STARBUCKS IOI KULAI DT,1.6481162,103.6265492,"LOT NO. G-OSE3/5/6, GROUND FLOOR, IOI MALL, LEBUH PUTRA UTAMA, BANDAR PUTRA, 81000 KULAI, JOHOR"
Starbucks,STARBUCKS NU TOWER,3.132303,101.6867157,"LEVEL LG3, MENARA ALLIANZ SENTRAL, NO. 203, JALAN TUN SAMBANTHAN, KUALA LUMPUR SENTRAL, 50470 KUALA LUMPUR"
Starbucks,STARBUCKS VIVA HOME,3.1230666,101.7194621,"LOT NO. LG-46 , LOWER GROUND FLOOR, VIVA HOME,NO. 85 JALAN LOKE YEW,55200 KUALA LUMPUR"
Starbucks,STARBUCKS AMCORP TOWER,3.1045599,101.6474263,"G-01, GROUND FLOOR, AMCORP TOWER, 18 PERSIARAN BARAT, 46050 PETALING JAYA, SELANGOR"
Starbucks,STARBUCKS RESERVE SKY AVENUE,3.4239007,101.7938018,"LOT T2B-31, SKY AVENUE, 48000 GENTING HIGHLANDS, PAHANG"
Starbucks,STARBUCKS SUNWAY VELOCITY,3.1279207,101.7256477,"LOT G-27, GROUND FLOOR, SUNWAY VELOCITY MALL, JALAN PEEL, MALURI, 55100 KUALA LUMPUR"
Starbucks,STARBUCKS RESERVE PUBLIKA SHOPPING GALLERY,3.1714242,101.6642001,"LOT 42, LEVEL G2, PUBLIKA SHOPPING GALLERY, SOLARIS DUTAMAS, JALAN DUTAMAS 1, 50480 KUALA LUMPUR"
Starbucks,STARBUCKS DESA SRI HARTAMAS,3.1624198,101.6505154,"NO. 22, JALAN 25/70A, DESA SRI HARTAMAS, 59400 KUALA LUMPUR"
Starbucks,STARBUCKS PJ8,3.1016037,101.6404108,"NO. 21, JALAN BARAT, 46200 PETALING JAYA, SELANGOR"
Starbucks,STARBUCKS LOTUS'S TANJUNG PENANG,5.458937199999999,100.3087485,"G4, GROUND FLOOR, LOTUS'S TANJUNG PINANG, NO 1, JALAN SERI TANJUNG PINANG, TANJUNG TOKONG, 10470 PULAU PINANG"
Starbucks,STARBUCKS RHB CENTRE,3.1439013,101.7219347,"LOT 1, GROUND FLOOR, TOWER 1, RHB CENTRE, JALAN TUN RAZAK, 50400 KUALA LUMPUR"
Starbucks,STARBUCKS 1ST AVENUE,5.413202999999999,100.3313709,"LOT G-09 & G-10, GROUND FLOOR,1ST AVENUE, 182 JALAN MAGAZINE, 10300 PENANG."
Starbucks,STARBUCKS GREEN HALL,5.421302600000001,100.3393387,"LOT NO. 1, GREEN HALL, GROUND FLOOR, 10200 PENANG"
Starbucks,STARBUCKS MYTOWN,3.1348713,101.722742,"G-026 & G-E-026, GROUND FLOOR, MYTOWN SHOPPING CENTRE, NO.6, JALAN COCHRANE, SEKSYEN 90, 55100 KUALA LUMPUR"
Starbucks,STARBUCKS GENTING PREMIUM OUTLET SUITE,3.4033765,101.7831159,"NO. 422, GENTING HIGHLANDS PREMIUM OUTLETS, GENTING HIGHLANDS, 69000 PAHANG"
Starbucks,STARBUCKS JELAPANG SQUARE DT,4.6427876,101.0629968,"LOT BESAR 392323, PUSAT KOMERSIAL JELAPANG, JELAPANG, IPOH, MUKIM HULU KINTA, DAERAH KINTA, PERAK"
Starbucks,STARBUCKS KL SOGO,3.1562412,101.6952657,"LOT NO. GF B-04, GROUND FLOOR, KOMPLEKS SOGO, 190, JALAN TUANKU ABDUL RAHMAN, 50100, KUALA LUMPUR"
Starbucks,STARBUCKS TAYLOR'S LAKESIDE,3.0736974,101.5891419,"NO.1, JALAN TAYLOR'S, SUBANG JAYA, 47500, SELANGOR."
Starbucks,STARBUCKS UOA BUSINESS PARK,3.0848318,101.5840178,"UNIT 1-1 LEVEL 1, THE PODIUM, TOWER 3, UOA BUSINESS PARK, NO.1, JALAN PENGATURCARA, U1/51A, SEKSYEN U1, 40150, SHAH ALAM, SELANGOR"
Starbucks,STARBUCKS BINTULU AIRPORT,3.1237988,113.0238914,"LOT NO. GL 19, GROUND FLOOR, PUBLIC CONCOURSE (LANDSIDE), BINTULU AIRPORT, SARAWAK"
Starbucks,STARBUCKS RESERVE PARADIGM JB,1.516239,103.6851193,"LOT GF-37A, GROUND FLOOR, PARADIGM MALL, JALAN SKUDAI, 81200 JOHOR BAHRU"
Starbucks,STARBUCKS ARCORIS MONT KIARA,3.1681185,101.6518685,"LOT G-1, GROUND LEVEL @ ARCORIS, NO. 10, JALAN KIARA, MONT KIARA, 50480 KUALA LUMPUR"
Starbucks,STARBUCKS 3 DAMANSARA,3.1304749,101.6269411,"LOT G-01, GROUND FLOOR, TROPICANA CITY MALL, NO. 3, JALAN SS20/27, 47400 PETALING JAYA SELANGOR DARUL EHSAN"
Starbucks,STARBUCKS RESERVE DESA PARKCITY,3.1869487,101.6277335,"LOT GF-03, GROUND FLOOR, THE WATERFRONT @ PARKCITY, NO.5, PERSIARAN RESIDEN, DESA PARKCITY, 52200 KL"
Starbucks,STARBUCKS SOLARIA SQUARE DT,5.3002843,100.2664475,"2-G-23-03, MEDAN RAJAWALI, SOLARIA SQUARE, 11900, BAYAN LEPAS, 11900 PENANG"
Starbucks,STARBUCKS RESERVE FOUR SEASON,3.1579081,101.7136121,"LOT 1, GROUND FLOOR AT SHOPPERS AT FOUR SEASONS PLACE, NO. 145, JALAN AMPANG, 50450 KUALA LUMPUR"
Starbucks,STARBUCKS KPJ SABAH,5.967326,116.0932226,"KPJ SABAH SPECIALIST HOSPITAL, LOBBY A, LOT NO. 2 & 3, OFF JALAN DAMAI, LUYANG, 88300 KOTA KINABALU, SABAH"
Starbucks,STARBUCKS ALAM DAMAI,3.066629,101.7436341,"NO. 21, GROUND FLOOR, JALAN ALAM DAMAI NIAGA 1, ALAM DAMAI CHERAS, 56100 KUALA LUMPUR"
Starbucks,STARBUCKS EKO CHERAS,3.0934935,101.7391395,"LG-11, LOWER GROUND FLOOR, EKO CHERAS MALL, TAMAN MUTIARA BARAT, 56000 CHERAS, KUALA LUMPUR"
Starbucks,STARBUCKS KULIM CENTRAL,5.3844429,100.5452691,"LOT GF-08, GROUND FLOOR, KULIM CENTRAL, JALAN KLC SATU (1), 09000 KULIM, KEDAH"
Starbucks,STARBUCKS ALL SEASONS PLACE,5.402693,100.2782329,"6G-1-17, LEVEL 1, ALL SEASON PLACE, AIR ITAM, GEORGE TOWN, 97000, PENANG"
Starbucks,STARBUCKS MALIM JAYA DT,2.2429821,102.2347654,"LOT 2610, MUKIM BUCHANG, TAMAN MALIM JAYA, 75400 MELAKA"
Starbucks,STARBUCKS JAYA ONE,3.1176708,101.635702,"LOT NO. G.013, GROUND FLOOR, THE SQUARE, JAYA ONE, 72A, JALAN UNIVERSITI, SEKSYEN 13, 46200 PETALING JAYA, SELANGOR."
Starbucks,STARBUCKS THE SPRING,1.5355458,110.3582016,"LOT G10, FIRST FLOOR, THE SPRING SHOPPING CENTRE,LOT 7196, SECTION 64, KUCHING TOWN LAND DISTRICT, JALAN SIMPANG TIGA, 93350 KUCHING, SARAWAK"
Starbucks,STARBUCKS THE SPRING BINTULU,3.1811596,113.034922,"LOT G42A, GROUND FLOOR, THE SPRING BINTULU, 97000 BINTULU, SARAWAK"
Starbucks,STARBUCKS CENTRAL I-CITY,3.0624082,101.4817408,"LG-12, LOWER GROUND FLOOR, CENTRAL I-CITY SHOPPING CENTRE, 40000 SHAH ALAM, SELANGOR"
Starbucks,STARBUCKS MID VALLEY KIOSK,3.1175628,101.6774073,"G-076-079, GROUND FLOOR, MID VALLEY MEGAMALL, 59200 KUALA LUMPUR"
Starbucks,STARBUCKS AEON BUKIT TINGGI,2.9951054,101.4439103,"LOT G22 AEON BUKIT TINGGI SHOPPING CENTRE, NO.1 PERSIARAN BATU NILAM 1/KS6, BANDAR BUKIT TINGGI 2, 41200 KLANG,SELANGOR."
Starbucks,STARBUCKS CALTEX JURU R&R DT,5.3192607,100.4475131,"RETAIL AREA 2, JURU CALTEX LAYBY NORTHBOUND, LOT 4291, MUKIM 6, DAERAH SEBERANG PERAI TENGAH, PENANG"
Starbucks,STARBUCKS SUNSURIA FORUM,3.1053848,101.467425,"LOT C01, GROUND FLOOR, NO.1, JALAN SETIA DAGANG AL U13/AL, SETIA ALAM, 40170 SHAH ALAM, SELANGOR"
Starbucks,STARBUCKS SUNWAY PYRAMID 2,3.0716563,101.6059344,"LOT LG1.110, LOWER GROUND 1, SUNWAY PYRAMID JALAN PJS 11/15 BANDAR SUNWAY 46150 PETALING JAYA, SELANGOR."
Starbucks,STARBUCKS SUNWAY UNIVERSITY,3.0672064,101.6038682,"MEZZANINE FLOOR, NO. 5 JALAN UNIVERSITI, BANDAR SUNWAY, 47500 SELANGOR"
Starbucks,"STARBUCKS CITY MALL, KK",5.96137,116.0971866,"LOT NO.4, GROUND FLOOR CITY MALL, JALAN LINTAS LUYANG, 88300, KOTA KINABALU , SABAH."
Starbucks,STARBUCKS MALL OF MEDINI,1.4290229,103.6331061,"LOT OUTDOOR CAFE, GROUND FLOOR, MALL OF MEDINI, LEBUH MEDINI UTARA, 79200 NUSAJAYA, JOHOR"
Starbucks,STARBUCKS CENTRO KLANG,3.0465939,101.449508,"LOT G135,  GROUND FLOOR, NO.8, JALAN BATU 3, 41300 KLANG, SELANGOR."
Starbucks,STARBUCKS PEARL POINT,3.0831533,101.6694446,"LOT NO. 1.0.26, GROUND FLOOR,PEARL POINT SHOPPING MALL,BATU 5, JALAN KELANG LAMA,58000 KUALA LUMPUR"
Starbucks,STARBUCKS THE STARLING,3.1352052,101.6230055,"G-039, GROUND FLOOR, THE STARLING, 6, JALAN SS21/37, DAMANSARA UPTOWN, 47400 PETALING JAYA, SELANGOR."
Starbucks,STARBUCKS BANGSAR VILLAGE 2,3.1306409,101.6712869,"LOT NO.2F-22 & K1, 2ND FLOOR, BANGSAR VILLAGE II, NO.2, JALAN TELAWI SATU, BANGSAR BARU, 59100 KUALA LUMPUR"
Starbucks,STARBUCKS DATARAN PAHLAWAN,2.1899761,102.2504291,"BX-001A & G-003A, DATARAN PAHLAWAN MELAKA MEGAMALL, JALAN MERDEKA, BANDAR HILIR, 75000 MELAKA"
Starbucks,STARBUCKS QUEENSBAY MALL 2,5.333048799999999,100.3065283,"UNIT NO: 1F-K1/P2 [POSTAL NO.: 1F-108/109], FIRST FLOOR, QUEENSBAY MALL, 100 PERSIARAN BAYAN INDAH, 11900 BAYAN LEPAS, PENANG."
Starbucks,STARBUCKS QUEENSBAY MALL,5.333048799999999,100.3065283,"GF-36, GROUND FLOOR, QUEENSBAY MALL, 100, PERSIARAN BAYAN INDAH, 11900, BAYAN LEPAS, PENANG."
Starbucks,STARBUCKS PANTAI MEDICAL CENTRE,3.1197152,101.6669298,"RETAIL LOT 6, GROUND FLOOR, BLOCK A, PANTAI MEDICAL CENTRE, 8, JALAN BUKIT PANTAI, 59100 KUALA LUMPUR"
Starbucks,STARBUCKS IPOH PARADE,4.5959134,101.0900944,"LOT G25, GROUND FLOOR, IPOH PARADE, 105, JALAN SULTAN ABDUL JALIL, 30450 GREENTOWN, IPOH, PERAK DARUL RIDZUAN."
Starbucks,STARBUCKS AEON TEBRAU,1.5499352,103.7956583,"LOT G110, GROUND FLOOR, AEON TEBRAU CITY SHOPPING CENTRE, NO. 1, JALAN DESA TEBRAU, TAMAN DESA TEBRAU, 81100 JOHOR BAHRU, JOHOR"
Starbucks,"STARBUCKS SS15, SUBANG JAYA",3.0739952,101.5904943,"GROUND FLOOR, NO.79, JALAN SS15/8A, 47500 SUBANG JAYA, SELANGOR."
Starbucks,"STARBUCKS BORDERS, THE CURVE",3.1581563,101.6104855,"LOT G16, GROUND FLOOR, THE WALK, JALAN PJU 7/3, MUTIARA DAMANSARA, 47800 PETALING JAYA, SELANGOR."
Starbucks,STARBUCKS RESERVE IOI MALL DAMANSARA,3.1491258,101.5931749,"LOT G-22, GROUND FLOOR, IOI MALL DAMANSARA, JALAN PJU 3/21, TROPICANA INDAH, 47410 PETALING JAYA, SELANGOR"
Starbucks,STARBUCKS AEON SHAH ALAM,3.0767621,101.5482713,"LOT G07, GROUND FLOOR, AEON MALL SHAH ALAM, JALAN AKUATIK 13/64, SEKSYEN 13, 40100 SHAH ALAM, SELANGOR"
Starbucks,STARBUCKS BAYAN BARU,5.327131,100.285339,"LOT 73-1-3, GROUND FLOOR, IDEAL @ THE ONE, JALAN MAHSURI, BAYAN LEPAS, 11950 PENANG"
Starbucks,STARBUCKS TOPPEN (IKANO JB),1.5516285,103.7980674,"L1.52, LEVEL 1, TOPPEN SHOPPING CENTRE, NO.33, JALAN HARMONIUM, TAMAN DESA TEBRAU, 81100 JOHOR BAHRU, JOHOR DARUL TAKZIM"
Starbucks,STARBUCKS EGATE PENANG,5.375986,100.315242,"LOT 1-01-17, LEBUH TENGKU KUDIN 2, 11700 GELUGOR, PENANG"
Starbucks,STARBUCKS KUALA LUMPUR CONVENTION CENTRE,3.1538815,101.7134125,"LOT C09, CONCOURSE FLOOR, KUALA LUMPUR CONVENTION CENTRE, 50088 KUALA LUMPUR"
Starbucks,STARBUCKS BBCC LALAPORT,3.1408189,101.7086085,"LOT G-72, MITSUI SHOPPING PARK LALAPORT, BUKIT BINTANG CITY CENTRE, 55100, KUALA LUMPUR"
Starbucks,STARBUCKS PLAZA DAMAS,3.1639777,101.65747,"LOT P7-A, PLAZA GROUND FLOOR, HARTAMAS SHOPPING CENTRE, JALAN SRI HARTAMAS 1, SRI HARTAMAS, 50480 KUALA LUMPUR."
Starbucks,STARBUCKS BAGAN AJAM DT,5.4403117,100.3817052,"1, LORONG OREN, PUSAT PERNIAGAAN OREN, 12200 BUTTERWORTH, PULAU PINANG."
Starbucks,STARBUCKS CALTEX USJ 16,3.032186,101.577577,"LOT 48730 (PT569), CALTEX USJ 16, 46000 SUBANG JAYA, SELANGOR"
Starbucks,STARBUCKS TASEK CENTRAL,1.5139494,103.6555281,"LOT 2-34 & 2-35, LEVEL 2, PLAZA TASEK, NO.2, JALAN PENDEKAR 16, 81300 SKUDAI, JOHOR"
Starbucks,STARBUCKS ALOR SETAR AIRPORT,6.1918083,100.3952239,"LOT NO. MTD01/C, LEVEL 1, DEPARTURE LEVEL, SULTAN ABDUL HALIM AIRPORT, ALOR SETAR, KEDAH"
Starbucks,STARBUCKS UNITED POINT,3.1909351,101.6535374,"UNIT G-25, GROUND FLOOR, PUSAT PERDAGANGAN BERPADU (UNITED POINT), NO. 10, JALAN LANG EMAS, 51200 KUALA LUMPUR"
Starbucks,STARBUCKS DAMANSARA AVENUE DT,3.1920845,101.6166547,"B-G-1, GROUND FLOOR, LOT 2005 & LOT 2006, PERSIARAN PERDANA, BANDAR SRI DAMANSARA PJU 9, 52200 KUALA LUMPUR"
Starbucks,STARBUCKS DAMANSARA UPTOWN 1,3.1333737,101.6213418,"LOT 110G, JALAN SS21/39, DAMANSARA UTAMA, 47400 PETALING JAYA, SELANGOR, MALAYSIA."
Starbucks,STARBUCKS LOW YAT PLAZA,3.1440858,101.70994,"LOT G28, GROUND FLOOR, PLAZA LOW YAT, NO.7, JALAN 1/77, OFF JALAN BUKIT BINTANG, 55100 KUALA LUMPUR, MALAYSIA"
Starbucks,STARBUCKS BANDAR UTAMA 2,3.150177,101.616177,"LOT F352, 1ST FLOOR RAINFOREST , 1 UTAMA SHOPPING CENTRE, NO 1, LEBUH BANDAR UTAMA, BANDAR UTAMA DAMANSARA, 47800 PETALING JAYA, SELANGOR."
Starbucks,STARBUCKS SUNWAY VELOCITY MEDICAL CENTRE,3.1280107,101.7220883,"GROUND FLOOR, SUNWAY MEDICAL CENTRE VELOCITY,PUSAT PERUBATAN SUNWAY VELOCITY, LINGKARAN SV, SUNWAY VELOCITY, 55100 KL"
Starbucks,STARBUCKS HILLSIDE DT,5.4600727,100.2845617,"NO 93, JALAN LOH POH HENG, 11200, BUNGAH, PULAU PINANG"
Starbucks,STARBUCKS SRI PETALING,3.0708746,101.6924639,"NO 2, JALAN RADIN BAGUS 7, SRI PETALING, 57000, KUALA LUMPUR"
Starbucks,STARBUCKS TAIPAN,3.048641,101.584385,"NO.41, GROUND FLOOR, JALAN USJ 10/1D, 47620 UEP SUBANG JAYA, SELANGOR, MALAYSIA."
Starbucks,STARBUCKS PETRONAS RAWANG R&R DT,3.3295501,101.5578744,"KAWASAN REHAT & RAWAT RAWANG, LEBUHRAYA UTARA - SELATAN(ARAH UTARA) RAWANG, 48000 SELANGOR."
Starbucks,STARBUCKS CHERAS SENTRAL,3.0784689,101.7449415,"LOT NO. 700-LG-16, 17, 18 & 18A, LOWER GROUND FLOOR, CHERAS SENTRAL, 56000 KUALA LUMPUR."
Starbucks,STARBUCKS KLIA 2 SATELLITE,2.7417476,101.7015569,"LOT NO. S6-2-A41, DEPARTURE LEVEL, KUALA LUMPUR INTERNATIONAL AIRPORT 2, JALAN KLIA 2/1, 64000 SEPANG, SELANGOR"
Starbucks,BERIBI DT,4.888165600000001,114.8953202,"UNIT 1,2 & 3, GROUND FLOOR, EDR NO. BD 27921, LOT NO. 29976, KAMPUNG BERIBI, MUKIM GADONG, BRUNEI MUARA DISTRICT, BE1118, BRUNEI DARUSSALAM."
Starbucks,BRUNEI AIRPORT,4.9429302,114.9433125,"BRUNEI AIRPORT, MEZZANINE LEVEL, TRANSIT HALL BRUNEI INTERNATIONAL AIRPORT, JALAN BERAKAS, BB2513, NEGARA BRUNEI"
Starbucks,EXCHANGE 106,3.1408633,101.7181832,"G25 & G23.B, GROUND FLOOR, MENARA EXCHANGE 106, LINGKARAN TRX, TUN RAZAK EXCHANGE, 55188 KUALA LUMPUR"
Starbucks,ALAM IMPIAN,3.0273181,101.5159762,"19, JALAN PANGLIMA HITAM M35/M, SEKSYEN 35 ALAM IMPIAN, 40470 SHAH ALAM"
Starbucks,TAMAN DESA,3.098915,101.6869009,"GROUND FLOOR, NO. 25, JALAN 5/109F TAMAN DANAU DESA, 58100 KUALA LUMPUR"
Starbucks,BELL AVENUE,2.8288608,101.705656,"R-G-20, BELL AVENUE, JALAN SUNSURIA, BANDAR SUNSURIA, 43900, SEPANG, SELANGOR"
Starbucks,KPJ DAMANSARA 2,3.1710864,101.6184473,"LOT C1-SH-05, LEVEL 1, HOSPITAL PAKAR DAMANSARA 2, NO. 1, JALAN BUKIT LANJAN 3, BUKIT LANJAN, 60000 KUALA LUMPUR"
Starbucks,KUALA KANGSAR,4.7723925,100.9233519,"NO. 1, 1A, PERSIARAN MEDAN MUTIARA 1, MEDAN MUTIARA, JALAN TAIPING, 33000 KUALA KANGSAR, PERAK"
Starbucks,PONTIAN JB,1.4983084,103.5297608,"GROUND FLOOR (GF) & FIRST FLOOR (1F), NO. 1, JALAN EMAS 1, PUSAT PERNIAGAAN, 82000 PONTIAN, JOHOR"
Starbucks,NIBONG TEBAL,5.1759189,100.4790006,"1874, JALAN AIR LINTAS, 14300 NIBONG TEBAL, PULAU PINANG"
Starbucks,PILAH GATEWAY,2.7348489,102.2344035,"PILAH GATEWAY, LG-07, L1-07, JALAN MELANG, 72000 KUALA PILAH, NEGERI SEMBILAN"
Starbucks,KOMUNE LIVING WELLNESS,3.1004819,101.7181261,"UNIT G-05 & G-06, GROUND FLOOR, BANGUNAN RU EMAS (KOMUNE LIVING & WELLNESS), NO. 21, JALAN TASIK PERMAISURI 2, BANDAR TUN RAZAK, 56000 KUALA LUMPUR"
Starbucks,RESERVE HYATT PLACE BUKIT JALIL,3.0536451,101.6708571,"M-1, GROUND FLOOR, HYATT PLACE BUKIT JALIL, PUSAT PERDAGANGAN BANDAR BUKIT JALIL, PERSIARAN JALIL 1, 57000 KUALA LUMPUR"
Starbucks,DENAI ALAM,3.162566,101.5130967,"NO. 10-1, GROUND FLOOR, JALAN ELEKTRON G U16/G, DENAI ALAM, 40160 SHAH ALAM"
Starbucks,PETRONAS HEIGHTS DRIVE DT,1.505766,110.3777216,"PETRONAS STATION HEIGHTS DRIVE, 667-A, JALAN STUTONG, HEIGHTS DRIVE, 93350 KUCHING, SARAWAK"
Starbucks,GLADES PLAZA,3.0088119,101.5777534,"SHOP 10 & 11, THE GLADES PLAZA, OFF PERSIARAN PUTRA PERDANA, SECTION 3, PUTRA HEIGHTS, 47650 SUBANG JAYA, SELANGOR DARUL EHSAN"
Starbucks,KCC CITY BUSINESS PARK,2.0475171,102.6004986,"NO. 18 & 19, GROUND FLOOR, JALAN GEMILANG BAKRI 1, PUSAT KOMERSIAL GEMILANG BAKRI, BAKRI 84200 MUAR, JOHOR"
Starbucks,BATU PAHAT MALL,1.867549,102.9758974,"G63A, G65 & G65A, BATU PAHAT MALL, NO. 325, JALAN KLUANG, 83000 BATU PAHAT, JOHOR DARUL TAKZIM"
Starbucks,MAHA TOWER,6.3200889,99.84584509999999,"LOT L1A,- 08, 09, 10, MAHA TOWER, PERSIARAN MAHAWANGSA, MUKIM KUAH, 07000 LANGKAWI, KEDAH"
Starbucks,PALO 101,4.592728699999999,101.0860097,"LOT 187-A, PALO 101, JALAN SULTAN ISKANDAR, TAMAN JUBILEE 30000, IPOH, PERAK"
Starbucks,"KPKT, PUTRAJAYA",2.9028672,101.6816473,"LOBI, ARAS GF, KEMENTERIAN PEMBANGUNAN KERAJAAN TEMPATAN, NO. 51 PERSIARAN PERDANA, PRESINT 4, 62100 WILAYAH PERSEKUTUAN PUTRAJAYA"
Starbucks,SETIA MAYURI,2.944911,101.8665994,"NO. 32-1, JALAN MAYURI 1/5A, SETIA MAYURI, SEMENYIH, 43500 SELANGOR"
Starbucks,HOSPITAL KL,3.1728212,101.7001977,"DATARAN FACELIFT, HOSPITAL KUALA LUMPUR, PERSIARAN HOSPITAL, 50586 KUALA LUMPUR"
Starbucks,SUNWAY MEDICAL CENTRE 2,3.0662562,101.6070419,"LEVEL 1, TOWER D, SUNWAY MEDICAL CENTRE, NO. 5, JALAN LAGOON SELATAN, 47500 BANDAR SUNWAY"
Starbucks,STARBUCKS SUNSURIA AVENUE DT,3.154700000000001,101.590769,"NO. 17, LAKESIDE WING, SUNSURIA AVENUE, PERSIARAN MAHOGANI, KOTA DAMANSARA PJU 5, 47810 PETALING JAYA"
Starbucks,STARBUCKS RESERVE ISLAND GLADES DT,5.3949413,100.3032725,"DRIVE THRU ON LOT NO(S) 1715-1720, PART OF 1738, 1741, 4642, 4774, 4781 & PT 25, JALAN MASJID NEGERI, SEKSYEN 5, BANDAR GEORGETOWN, DAERAH TIMUR LAUT"
Starbucks,STARBUCKS SULTAN IBRAHIM STADIUM,1.4816798,103.6192496,"ZONE GF-C-01 & GF-C-1A, SULTAN IBRAHIM STADIUM 79200, ISKANDAR PUTERI"
Starbucks,STARBUCKS PERMAS CITY,1.5119279,103.8170832,"NO. 01-19, BLOK A, PERMAS CITY, JALAN PERMAS UTARA, KAWASAN PERDAGANGAN PERMAS UTARA, BANDAR BARU PERMAS JAYA, 81750 MASAI"
Starbucks,STARBUCKS UNIVERSITY OF CYBERJAYA,2.9308597,101.6374144,"LOT 1A, UPPER GROUND FLOOR, UNIVERSITY OF CYBERJAYA, PERSIARAN BESTARI, CYBER 11, 63000 CYBERJAYA"
Starbucks,STARBUCKS AEON AYER KEROH,2.2342296,102.282382,"LOT G33, AEON MELAKA SHOPPING CENTRE, JALAN TUN ABDUL RAZAK, 75450 MELAKA"
Starbucks,STARBUCKS RESERVE TRX EXCHANGE MALL,3.1424073,101.7168132,"L2.75.0 & L2.76.0, LEVEL 2, PLAZA THE EXCHANGE TRX, PERSIARAN TRX, 55188, TUN RAZAK EXCHANGE, KUALA LUMPUR"
Starbucks,STARBUCKS PAVILION DAMANSARA HEIGHTS,3.1457893,101.6630128,"PAVILION DAMANSARA HEIGHTS, LOT 2.5500 & E2.5500, LEVEL 2, NO 3 JALAN DAMANLELA, 50490 KUALA LUMPUR"
Starbucks,STARBUCKS TD CENTRAL DT,1.5443438,103.7654544,"NO. 6B, JALAN SAGU 18, TAMAN DAYA, 81100 JOHOR BAHRU, JOHOR"
Starbucks,STARBUCKS GAMUDA COVE DT,2.8859352,101.6158664,"SB-01, SB-01-EXT & SB-01-E, DISCOVERY PARK, BANDAR GAMUDA COVE, 42700 DENGKIL, SELANGOR"
CU,CU Alor Setar,6.096797172225901,100.35679224889525,"CU Alor Setar, 48, Jalan Kuala Kedah, Taman Gunung Indah,   ALOR SETAR, KEDAH, 05400, Malaysia"
CU,CU Bukit Baru,2.2165749307179476,102.27048392286524,"PUSAT NIAGA NO,5-2, JALAN PNBBU 1, JALAN UTAMA,  BUKIT BARU , MELAKA, 75150, Malaysia"
CU,CU Kuala Ketil,5.6051911453632055,100.64059232894348,"108 & 109, PERSIARAN KKCC 2, COMMERCIAL CENTRE, KUALA KETIL,  KEDAH, 09300, Malaysia"
CU,CU Riverfront Sungai Petani,5.640101740221939, 100.48100229403929,"CU Riverfront Sungai Petani, No.101, Tingkat, 1, Jalan Mawar 2, Taman Pekan Baru,  SUNGAI PETANI, KEDAH, 08000, Malaysia"
CU,CU Setia Alam,3.127528241500311,101.46854321857083,"10-G-58, JLN SETIA GEMILANG BM U13/BM SETIA ALAM, SELANGOR, 40170, Malaysia"
CU,CU Solaria Square,5.300151153309237,100.26621723952547,"CU, G-7, SOLARIA SQUARE, Jalan Tun Dr Awang, Kampung Perlis, Bayan Lepas, Penang, 11900, Malaysia"
CU,CU Sri Damansara,3.1883843254715436,101.60544583013595,"CU Bandar Sri Damansara, 16, Jalan Tanjung SD 13/1, Bandar Sri Damansara, BANDAR SRI DAMANSARA, KUALA LUMPUR, 52200, Malaysia"
CU,CU Subang Skypark,3.133490761825774,101.55378750285068,"CU Subang Skypark, 3, Jalan Lapangan Terbang Subang, Lapangan Terbang Sultan Abdul Aziz Shah, SUBANG, SELANGOR, 47200, Malaysia"
CU,CU 1 Utama,3.149061760451449,101.61614724965175,"LOT F202 & F203 1ST FLOOR, 1 UTAMA SHOPPING CENTRE BANDAR UTAMA petaling jaya, selangor, 47800, Malaysia"
CU,CU Alor Gajah,2.3847046273035777,102.21644068317967,"CU Alor Gajah, 1, Jalan Perniagaan Jelatang 1, Pusat Perniagaan Jelatang,   ALOR GAJAH, MELAKA, 78000, Malaysia"
CU,CU Amanjaya Walk,5.675299514901845, 100.50844548207677,"CU Amanjaya Walk, Block E-6, PT 60651, Jalan Jati 1/1, Pusat Perniagaan Amanjaya,  Sungai Petani, KEDAH, 08000 , Malaysia"
CU,CU Amerin Mall,3.0250011461785795,101.75113124000033,"LOT G-7 & G-8, THE AMERIN MALL JALAN IMPIAN INDAH  Seri Kembangan, Selangor, 43300, Malaysia"
CU,CU Arkadia Desa Parkcity,3.1864229723830615,101.63613751692182,"CU @ Plaza Arkadia, F-G-10, Plaza Arkadia, 3, Jalan Intisari, Desa Parkcity, Kuala Lumpur, Kuala Lumpur, 52200, Malaysia"
CU,CU Aurelius Hospital Alor Setar,6.012119746381787,102.3811556065312,"RETAIL 3, AURELIUS HOSPITAL NO. B-5, PERSIARAN BANDAR BARU MERGONG JALAN PERUSAHAAN 1, BDR BARU MERGONG,  Alor Setar, KEDAH, 05150, Malaysia"
CU,CU Avenue K,3.15948952633391,101.71354125492283,"CU Mart 5070, Avenue K, C3B, Avenue K, Jln Ampang,  Kuala Lumpur, Kuala Lumpur, 50450, Malaysia"
CU,CU Awana Skyway,3.4037526475224413,101.78288109294623,"LOT NO. 2-4, LEVEL 2 AWANA SKYWAY STATION  Genting Highlands, pahang, 69000, Malaysia"
CU,CU Bahau,2.8100254522205903,102.39573483572435,"CU Bahau, 10e, Jalan Kiara 1,  Bahau, Negeri Sembilan, 72100, Malaysia"
CU,CU Bandar 2 Bukit Jalil,3.049827986732248,101.67139676986446,"LOT NO. 1.37.00, LEVEL 1 PUSAT BANDAR 2, PERSIARAN JALIL UTAMA  Bukit Jalil, Kuala Lumpur, 57000, Malaysia"
CU,CU Bandar Baru Kampar,4.326149188321749, 101.1450267733269,"CU, NO. 2246, JALAN BATU SINAR TAMAN BANDAR BARU  Kampar, Perak, 31900, Malaysia"
CU,CU Bandar Baru Uda Johor Bahru,1.4999239848419095,103.70831827853964,"CU Bandar Baru Uda JB, 8 & 10, Jalan Padi Emas 6/1, Bandar Baru Uda, Johor Bahru, Johor , 81200, Malaysia"
CU,CU Bandar Damai Perdana,3.045894499926404,101.73928413695234,"No. 20, Jalan Damai Perdana 1/9a, Bandar Damai Perdana, Kuala Lumpur, Kuala Lumpur, 56100, Malaysia"
CU,CU Bandar Mahkota Cheras,3.0534490833769694,101.78886212040621,"No.45-G, Jalan Temenggung 11/9,  BANDAR MAHKOTA CHERAS, SELANGOR , 43200, Malaysia"
CU,CU Bandar Menjalara,3.195120191173609,101.63095893787512,"CU Bandar Manjalara Kepong, Jalan 3/62a,  Bandar Menjalara, Kuala Lumpur, 52200, Malaysia"
CU,CU Bandar Pasir Putih,5.828413491895634,102.40277203811215,"CU Bandar Baru Pasir Puteh, PT2278, Tingkat Bawah, Kg, Jalan Banggol Kerian, Bandar Baru,  Pasir Puteh, KELANTAN, 16800, Malaysia"
CU,CU Bandar Perda Bukit Mertajam,5.365699086800761,100.43618170505435,"NO. 456, JALAN PERMATANG RAWA BANDAR PERDA  Bukit Mertajam, Penang, 14000, Malaysia"
CU,CU Bandar Puteri Puchong,3.0264200845456255,101.61686399789048,"CU Bandar Puteri Puchong, No.22A, Ground Floor, Dataran Puteri, Jalan Puteri 1/4, Bandar Puteri, Puchong, Selangor, 47000, Malaysia"
CU,CU Bandar Tasik Puteri Rawang,3.2842382689296525,101.4731406132781,"NO. 58-G-A & 58-G-B (GF) JALAN 7A/2, BANDAR TASIK PUTERI  rawang, Selangor, 48000, Malaysia"
CU,CU Bandar Utama Batang Kali,3.4546728109335874,101.66249215589768,"CU Bandar Utama Batang Kali, 69, Jalan Ara 2, Pusat Perdagangan Ara, Seksyen 5 Bandar Utama Batang Kali,  BATANG KALI, SELANGOR, 44300, Malaysia"
CU,CU Bendahara,3.3220383245654297,101.2670590119774,"CU mart @ Kuala Selangor, 16 & 18, Jalan Bendahara 1a, Taman Bendahara,  KUALA SELANGOR, SELANGOR, 45000, Malaysia"
CU,CU Bintang Ria,1.8301618382129619,103.30794159176567,"CU Simpang Renggam, 29, Jalan Bintang Ria 2, Kampung Simpang Renggam, SIMPANG RENGGAM,  JOHOR, 86200, Malaysia"
CU,CU Bukit Dahlia,1.4785915874169986,103.89398406826331,"No. 28, Jalan Serangkai 18, Taman Bukit Dahlia, Pasir Gudang, Johor, 81700, Malaysia"
CU,CU Bukit Sentosa Rawang,3.4034532389056165,101.55968925098476,"15-G, Jalan Orkid 1f/1, Bandar Bukit Beruntung, Rawang, selangor, 48300, Malaysia"
CU,CU Butterworth Business City Centre,5.41581006804063,100.38059496140725,"NO. 22 (GF) BUTTERWORTH BUSINESS CITY CTR JALAN RAJA UDA, Butterworth, Penang, 12300, Malaysia"
CU,CU Centre Point Bandar Utama,3.138409703761769,101.61013271746435,"LOT G03 & G03a, GROUND FLOOR CENTRE POINT, NO. 3, LEBUH BANDAR UTAMA BANDAR UTAMA, 47800 PETALING JAYA, SELANGOR Petaling Jaya, selangor, 47800, Malaysia"
CU,CU Centrepoint Seremban,2.7233913152535982,101.95541576519285,"CU Centrepoint Seremban, 33, Jalan Dato Siamang Gagap, Betaria Business Centre,  Seremban, Negeri Sembilan, 70100, Malaysia"
CU,CU Centrium Pahang,4.495113554908247,101.38921077038742,"A-G-14, PRESINT 1 CAMERON CENTRIUM Brinchang, Pahang, 39100, Malaysia"
CU,CU Chi Lung Klang,3.026953815598927,101.42862599879373,"No. 94, Lebuh Turi, Taman Palm Grove,  klang, Selangor, 41200, Malaysia"
CU,CU City Junction,5.450554541444366,100.3053111757846,"CU, 2-1-3, City Junction, 2, Persiaran Lengkuas, Kampung Belachan, Tanjung Tokong, Penang, 10470, Malaysia"
CU,CU Cottage Walk Sepang,2.9203865,101.658966,"CU Mart, Off, Persiaran APEC, Cottage Walk,  Sepang, selangor, 63000, Malaysia"
CU,CU Damansara Uptown,3.1364270035805943,101.62347703355125,"CU Mart @ Uptown, NO 47G, UPTOWN, 37, Jalan SS 21/37, Damansara Utama,  Petaling Jaya, selangor, 47400, Malaysia"
CU,CU Dataran Cheras 5,3.0359632700282457,101.76428078247127,"CU, 98-G, Jalan Dataran Cheras 5, DATARAN PERNIAGAAN CHERAS, Palakong, Selangor, 43200, Malaysia"
CU,CU Dataran Glomac,3.1033384384343776,101.60028331253463,"C-G-06, GROUND FLOOR DATARAN GLOMAC, JALAN SS6/5B  petaling jaya, selangor, 47310, Malaysia"
CU,CU Dato Razali Ampang,3.158839583027513,101.75004991407671,"No. 28 (GF), JALAN MAMANDA 7, TAMAN DATO AHMAD RAZALI Ampang, Selangor, 50450, Malaysia"
CU,CU Datum Mall,3.167840458774927,101.73627322520542,"CU @ Datum Jelatek Shopping Centre, G-26, G-26, AL (ALFRESCO, DATUM MALL, Jalan Enggang, Taman Keramat,  KUALA LUMPUR, KUALA LUMPUR, 54200, Malaysia"
CU,CU DC Mall,2.9746229970141376,101.65560429402936,"CU Damansara City Mall, LOT G-05, Ground Floor, Damansara City Mall, 6, Jalan Damanlela,  DAMANSARA, KUALA LUMPUR, 50490 , Malaysia"
CU,CU Desa Petaling,3.083085254800224,101.70445358757067,"CU Desa Petaling, 43-G & 45-G, Jln 1/125d, Taman Desa Petaling,  Kuala Lumpur, Kuala Lumpur, 57100, Malaysia"
CU,CU Dwangsa Wangsa Maju,3.196999610068563,101.74170677544673,"CU Wangsa Maju, 6, Jalan Wangsa Delima 11, Wangsa Maju,  Kuala Lumpur, Kuala Lumpur, 53300, Malaysia"
CU,CU Eko Botani Johor,1.4390925602961022,103.62052398979733,"No. 82, Jalan Eko Botani 3/2, Gelang Patah, Johor, 79100, Malaysia"
CU,CU Elmina Selatan R&R,3.1722778170045283,101.51949073594147,"SBC 02, KAWASAN REHAT DAN RAWAT ELMINA SELATAN LEBUHRAYA KORIDOR GUTHRIE  Sungai Buloh, Selangor, 47000, Malaysia"
CU,CU Gardens Mall,3.1188162152426866,101.67600082612368,"LG 238, LOWER GROUND FLOOR THE GARDENS MALL, MID VALLEY CITY LINGKARAN SYED PUTRA, MID VALLEY CITY , KUALA LUMPUR, 59200, Malaysia"
CU,CU Gemas,2.5802661330212935,102.60842037905881,"CU Gemas, NO. G10, JALAN HARMONI GEMAS 2, PUSAT PERNIAGAAN HARMONI, Gemas, Negeri Sembilan, 73400, Malaysia"
CU,CU Greentown Ipoh,4.599274825810271,101.09619270560313,"CU Greentown Ipoh, Greentown, 31, Persiaran Greentown 7, Pusat Perdagangan Greentown,  Ipoh, Perak, 30450, Malaysia"
CU,CU Ground Floor IOI City,2.969389991637112,101.71374264224771,"LOT GE-16, GROUND FLOOR IOI CITY MALL, LEBUH IRC IOI RESORT CITY putrajaya, Selangor, 62502, Malaysia"
CU,CU Iconic Point,5.28340747458676,100.47625816174201,"No. 1, Jalan Iconic Point,  SIMPANG AMPAT, PENANG, 14100, Malaysia"
CU,CU IIUM,3.236500,101.710920,"CU Mart IIUM, International Islamic University Malaysia, 53100, Jln Gombak,  Kuala Lumpur, Selangor, 53100, Malaysia"
CU,CU Indahpura Kulai,1.6418613208619943,103.61924975132261,"CU, 180, Jalan Kenanga 29/4, Bandar Indahpura Kulai, Johor, 81000, Malaysia"
CU,CU Indera Mahkota,3.8278791,103.2732596,"A-77GF, JALAN M7/1 BANDAR INDERA MAHKOTA 7 Kuantan, Pahang, 25200, Malaysia"
CU,CU Institut Endokrin Hospital Putrajaya,2.930160748093399,101.6745464576717,"CU Mart Institut Endokrin Hospital Putrajaya, Kafetaria Aras 2, Presint 7, Wilayah Persekutuan, Putrajaya, 62250, Malaysia"
CU,CU Jade Hills Kajang,2.9926292000428374,101.76096187875565,"NO. 66-1 (GF) JALAN DATARAN JADE 6 DATARAN JADE, JADE HILLS kajang, selangor, 43000, Malaysia"
CU,CU Jalan Tapah-Bidor,4.113360748389315,101.28623238055673,"1G, PT11165, Jalan Tapah, BIDOR, PERAK, 35500, Malaysia"
CU,CU Jaromas Jenjarom,2.874684186068832,101.5019115033423,"NO 19, GROUND FLOOR JALAN 2/1, TAMAN SERI JAROMAS  Jenjarom, Selangor, 42600, Malaysia"
CU,CU Jelawat,6.012099692796549,102.38117607326605,"CU Jelawat, PT4402 & PT4403, Tingkat Bawah, Bandar Baru Jelawat,  Bachok, KELANTAN, 16070, Malaysia"
CU,CU Jengka,3.7841286954777513,102.54332332498825,"Pusat Komersial Bandar Jengka, Lorong Intan 2, Nadi Kota. Bandar Tun Razak , PAHANG, 26400, Malaysia"
CU,CU Jerantut,3.997206402186675, 102.36267592702025,"CU Jerantut, No. TT2, Jalan Dulang 1, Bandar Baru,  Jerantut, PAHANG,  27000, Malaysia"
CU,CU Jerteh,5.733309264343997,102.48209107777275,"CU Bandar Jerteh, Lot 196 (Tingkat Bawah), Jalan Tuan Hitam, Bandar Jerteh, Jerteh, TERENGGANU, 22000, Malaysia"
CU,CU JOHOR PREMIUM OUTLET,1.603401756324125,103.62120565877223,"236 & 240, JOHOR PREMIUM OUTLET INDAHPURA Kulai, Johor, 81000, Malaysia"
CU,CU Kebun Teh Johor Bahru,1.4856445698530345,103.75397982435814,"CU Kebun Teh Johor Bahru, 14-01, Jalan Kebun Teh 1, Larkin,  Johor Bahru, Johor, 80250, Malaysia"
CU,CU KLIA2,2.742612982705081,101.68663923114927,"LOT L3-36 & L3-38 LEVEL 3, GATEWAY @ KLIA2, TERMINAL KLIA2 KL INTERNATIONAL AIRPORT, JLN KLIA 2/1, SEPANG, SELANGOR, 64000, Malaysia"
CU,CU Kolej Za'aba Universiti Pendidikan Sultan Idris (UPSI),3.7241877545313216,101.5181996576717,"CU Kafeteria Kolej Za'aba, Kampus Sultan Azlan Shah (KSAS), Tanjong Malim, Perak, 35900, Malaysia"
CU,CU Komersial Radia Shah Alam,3.1021208,101.5364113,"G-36, KOMERSIAL RADIA PERSIARAN TEBAR LAYAR BUKIT JELUTONG Shah Alam, Selangor, 40150, Malaysia"
CU,CU Kompleks Parit Buntar,5.127741941529333,100.48954224974214,"Unit G, Kompleks 199, 1 & G-2, Jalan Taiping, PARIT BUNTAR, PERAK, 34200, Malaysia"
CU,CU Kota Emerald,3.3246579231406423,101.54433701812587,"LOT 1286, RUMAH CONTOH BROOKLYN @ PEJABAT JUALAN SEMENTARA KOTA EMERALD RAWANG, SELANGOR , 48000, Malaysia"
CU,CU Kota Kemuning,3.000223,101.532623,"UNIT NO. 2-29-1 (GROUND FLOOR) NO. 14, PERSIARAN ANGGERIK VANILLA SEKSYEN 31, KOTA KEMUNING Shah Alam, Selangor, 40460, Malaysia"
CU,CU Kota Laksamana,2.1984852841084206,102.2319906805379,"CU Mart, 10, Jln KLJ 4, Taman Kota Laksamana,  MELAKA, MELAKA, 75200, Malaysia"
CU,CU Kuala Pilah,2.73488745747472,102.23442617059672,"CU Kuala Pilah, P6MM+VM, Kampung Gemelang,  Kuala Pilah, Negeri Sembilan. , 72000, Malaysia"
CU,CU Kuala Selangor,3.3217667870799286,101.26695821716194,"No 16 & 18, Jalan Bendahara 1A, Taman Bendahara,   KUALA SELANGOR, SELANGOR, 45000, Malaysia"
CU,CU Kuchai Maju,3.089719619434265,101.687702822852,"NO. 33, JALAN KUCHAI MAJU 8, KUCHAI ENTREPRENEURS PARK  Kuala Lumpur, Kuala Lumpur, 58200, Malaysia"
CU,CU Larkin Jaya,1.4955699133225548,103.74115706122117,"PTB NO. 24500, JALAN GERODA 2/1 LARKIN JAYA  JOHOR BAHRU, JOHOR, 80350 , Malaysia"
CU,CU Lumut Taman Batik Puteri,4.209694344479902,100.61586300491285,"CU, No. 6 &, 7, Jalan Batik Puteri 1, Taman Batik Puteri,  Lumut, Perak, 32200, Malaysia"
CU,CU Manjung Point 3,4.216708603043577,100.6705397879582,"No. 7, Jalan PPMP 3/1, Seri Manjung, Perak, 32040, Malaysia"
CU,CU Masai,1.4848103149925773,103.93750797838433,"CU Kota Masai, 23a, Jln Ekoperniagaan 7, Taman Kota Masai, Pasir Gudang, JOHOR, 81700 , Malaysia"
CU,CU Mayang Mall,5.340131867073423,103.14306022378437,"Lot G-40, Mayang Mall, 301, Jalan Haji Mat Taukey, Kampung Surau Pasir,  Kuala Terengganu, Terengganu, 20000, Malaysia"
CU,CU Medan Klebang Restu Chemor,4.681860339649274,101.12157773892844,"CU, No. 70, Laluan Klebang Restu 2, Chemor, Perak, 31200, Malaysia"
CU,CU Medan Pesona,4.772467856304305,100.94028647518175,"No. 4, Medan Pesona, Sungai Siput KUALA KANGSAR, PERAK, 31100, Malaysia"
CU,CU Megan Avenue 1,3.1620187084922917,101.71703249586837,"CU MART, Megan Phileo Promenade Block E, Hampshire Park,  Kuala Lumpur, Kuala Lumpur, 50400, Malaysia"
CU,CU Mentakab,3.4848120837625096,102.34971607783173,"CU Mentakab, 71G, 87 Jalan Mentakab, Taman Bendera, Mentakab, Pahang, 28400, Malaysia"
CU,CU Mesamall Nilai,2.8251367177669895,101.77778981970866,"Mesahill, G-03 Ground Floor Mesamall Lot 13865, Persiaran Ilmu BBN, Bandar Baru Nilai, NILAI, NEGERI SEMBILAN, 07180, Malaysia"
CU,CU Mid Valley,3.117178299925132,101.6781221247239,"Unit G-022 and 023, Level G, Mid Valley Megamall, Mid Valley City, Lingkaran Syed Putra,  MID VALLEY CITY , KUALA LUMPUR, 59200, Malaysia"
CU,CU MNR Affin TRX,3.141865209474032,101.71972917472591,"LOT P1-01, MENARA AFFIN LINGKARAN TRX, TUN RAZAK EXCHANGE,  Kuala Lumpur, Kuala Lumpur, 55188, Malaysia"
CU,CU Mount Austin Johor Bahru,1.5606667954209428 ,103.7803365260248,"No. 35, Jalan Austin Heights 3, Taman Mount Austin, Johor Bahru, Johor, 81100, Malaysia"
CU,CU Mutiara Mas Skudai,1.5138569385050993,103.63171071860911,"NO. 63-G, JALAN MUTIARA 1/9 TAMAN MUTIARA MAS  Johor Bahru, Johor, 81300, Malaysia"
CU,CU Mytown Shopping Centre,3.1340750327792186,101.72307889638441,"LOT NO. B1-061, B1-062, B1 MYTOWN SHOPPING CENTRE, NO. 6 JALAN COCHRANE, SEKSYEN 90 Kuala Lumpur, Kuala Lumpur, 55100, Malaysia"
CU,CU Nexus Bangsar South,3.1100698749013618,101.66563430035117,"CU Nexus Bangsar South, Unit G-13A, Ground Floor, 7, Jalan Kerinchi, Pantai Dalam,  Kuala Lumpur, Federal Territory of Kuala Lumpur, 59200, Malaysia"
CU,CU Nilam 4B Bukit Tinggi,3.007130471072695,101.43645825071185,"NO. 62-0, LORONG BATU NILAM 4B BANDAR BUKIT TINGGI  Klang, Selangor, 41200, Malaysia"
CU,CU Nova U5/N Bestari,3.1782534,101.5478947,"CU Mart, 19, Jalan Nova U5/N, Subang Bestari, Shah Alam, Selangor, 40150, Malaysia"
CU,CU Pekan Jitra,6.258669247579971,100.41958240996262,"CU MART Pekan Jitra 2, Pekan Jitra 2, JITRA, Kedah, 06000, Malaysia"
CU,CU Pekan Nenas,1.4953697180174503,103.52620697194357,"CU Pekan Nenas, 83, Jalan Industri 8, Taman Perindustrian Pekan Nenas, Pontian District, Johor, 81500, Malaysia"
CU,CU Perbandaran Kuala Kangsar,4.7724880625416635,100.94030193767223,"No. 5, Persiaran Perbandaran,  Kuala Kangsar, Perak, 33800, Malaysia"
CU,CU Perling Johor Bahru,1.4821270120377739,103.68487813767493,"CU Mart Taman Perling, No. 18-G, Jalan Persiaran Perling 1, Taman Perling, Johor Bahru, Johor , 81300, Malaysia"
CU,CU Permas 10 Masai,1.4965263170843552,103.8151917307091,"CU Permas Jaya, 1, Jln Permas 10, Permas Jaya,  Masai, Johor, 81750, Malaysia"
CU,CU PIKOM Segamat,2.4997618311324925,102.82708213642236,"1 & 2, Jalan Melor, Kampung Abdullah,  Segamat, JOHOR, 85000, Malaysia"
CU,CU PKOM Suria Johor Bahru,1.4556315375019349,103.59899432869604,"NO. 17, JALAN SURIA 2, Taman Nusa Perintis Gelang Patah, Johor, 81550, Malaysia"
CU,CU Plaza Gurney,5.437150493864657,100.30928475275384,"CU, 170-B1-39, Gurney Dr, Georgetown, Penang, Penang, 10250, Malaysia"
CU,CU Plaza Usahawan Kuala Lumpur,3.2025866129581275,101.71717850412098,"CU Plaza Usahawan Setapak, 8, Jalan Danau Niaga, Danau Kota,  Kuala Lumpur, Kuala Lumpur, 53300, Malaysia"
CU,CU Pocket C UTP,4.382995833385813, 100.9643695434402,"Pocket C, Universiti Teknologi PETRONAS, Persiaran UTP, Seri Iskandar, PERAK, 32610, Malaysia"
CU,CU PP Tunjung KB,6.068942986859981,102.23766506254081,"CU Tunjung Kota Bharu, PT1365), Ground Floor, Pusar Perniagaan, Lot 506, Jalan Kuala Krai, Bandar Baru Tunjung,  Kota Bharu, KELANTAN, 16010, Malaysia"
CU,CU Presint 15,2.944944304743335,101.7214446670842,"CU Mart, P15, ST, Nadi, 19, 15, Jln Diplomatik, Presint 15, Wilayah Persekutuan, Putrajaya, 62050, Malaysia"
CU,CU Prima Batu Caves,3.2395823490117084,101.69987252278241,"29-G, Jalan Prima SG 1 Prima Sri Gombak   Batu Caves, selangor, 68100, Malaysia"
CU,CU Promenade,5.3242699692081485,100.28196318748643,"CU, NO. 5-G-12, THE PROMENADE PERSIARAN MAHSURI, BANDAR BAYAN BARU,  BAYAN LEPAS, PULAU PINANG, 11950, Malaysia"
CU,CU Puncak Sentul Kuala Lumpur,3.202211751762018,101.68947846745984,"AG-19, Ground Floor, 8, Jln Sentul Pasar, Sentul, Kuala Lumpur, Kuala Lumpur, 51000, Malaysia"
CU,CU Queens Residences Pulau Pinang,5.33216082071719,100.3092993377062,"SU-G-25, QUEENS RESIDENCES Q1 JALAN BAYAN INDAH  Bayan Lepas, Penang, 11900, Malaysia"
CU,CU R&R Seremban South Bound,2.7653376543648043,101.82898443857303,"R&R Seremban South Bound, North-South Expy, Seremban, Negeri Sembilan, 79000, Malaysia"
CU,CU Radin Bagus,3.0711228962464263,101.69322864110669,"NO. 121 JALAN RADIN BAGUS SRI PETALING Kuala Lumpur, Kuala Lumpur, 57000, Malaysia"
CU,CU Rasah Prima,2.688856863231449,101.93324554640557,"NO. 2G & 3G, JALAN RASAH PRIMA 1 PUSAT KOMERSIAL RASAH PRIMA  seremban, Negeri Sembilan, 70300, Malaysia"
CU,CU Rohas Kuala Lumpur,3.155356478223892,101.70905101297548,"No. 11, Jalan P. Ramlee, City Centre,  Kuala Lumpur, Kuala Lumpur, 50250, Malaysia"
CU,CU Samsung Negeri Sembilan,2.6759877400572094,102.00940743970219,"Samsung SDI Energy Malaysia Sdn Bhd, Lot 635 & 660, Kawasan Perindustrian Tuanku Jaafar, Seremban, Negeri Sembilan Seremban, Negeri Sembilan. , 72000, Malaysia"
CU,CU Seksyen 13 Shah Alam,3.075830,101.551878,"G10, MENARA U, NO 2 JALAN BOLING PADANG 13/62 SEKSYEN 13 Shah Alam, Selangor, 40100, Malaysia"
CU,CU Selayang,3.2567165738773336 ,101.65627621253495,"No. 67, Jalan 2/16, Bandar Baru Selayang, Selayang Batu Caves, Kuala Lumpur, 68100, Malaysia"
CU,CU Semenyih,2.9578146942043038,101.83962333981358,"CU, 39-1, Jalan Vista Valley 3, Vista Valley Semenyih,  SEMENYIH, SELANGOR, 43500, Malaysia"
CU,CU Senai International Airport,1.6357877850042095,103.6632910576717,"CU Mart, 33-G, Departure Hall, Senai Airport,  Johor Bahru, Johor, 81250, Malaysia"
CU,CU Setia City Mall,3.1102786304457983,101.45807602004894,"LG-131, LOWER GROUND FLOOR SETIA CITY MALL, 7, PERSIARAN SETIA DAGANG SETIA ALAM SHAH ALAM, SELANGOR, 40170, Malaysia"
CU,CU Sierra Fresco,2.974732152552839, 101.65561368737433,"LOT 2-3, SIERRA ALFRESCO, JALAN SIERRA 10/1, BANDAR 16 SIERRA  PUCHONG, SELANGOR, 47110, Malaysia"
CU,CU Sky Avenue,3.426806929593561,101.79669455139499,"LOT NO. T2C-B02 LEVEL T2C, SKY AVENUE  GENTING HIGHLANDS, PAHANG, 69000, Malaysia"
CU,CU Sky Avenue Genting Highlands,3.4250583631491214,101.79639853682716,"LOT NO. T2C-B02 LEVEL T2C, SKY AVENUE  Genting Highlands, Pahang, 69000, Malaysia"
CU,CU Solaris,3.1757186555009924,101.65971200854486,"NO. 20-G, JALAN SOLARIS 4 SOLARIS MONT KIARA, Kuala Lumpur, Kuala Lumpur, 50480, Malaysia"
CU,CU Southkey,1.5013743230033005,103.77749727818089,"F-028, THE MALL MID VALLEY SOUTHKEY NO. 1, PERSIARAN SOUTHKEY 1 JOHOR BAHRU, JOHOR, 80150 , Malaysia"
CU,CU SS15/4 Subang,3.0757996443139084,101.5891593210314,"CU, 76, Jalan SS 15/4, SS 15, Subang Jaya, selangor, 47500, Malaysia"
CU,CU Subang Perdana,3.1489606354280126,101.54424854210863,"CU Subang Perdana, LOT 27-G, Jalan Dinar G U3/G, Taman Subang Perdana, SHAH ALAM, SELANGOR, 40150, Malaysia"
CU,CU Sultan Iskandar Ipoh,4.592468382554745,101.0862649373286,"CU, 189-B, Jalan Sultan Iskandar, Taman Jubilee, ipoh, Perak, 30000, Malaysia"
CU,CU Sungai Long Cheras,3.0396398663431214,101.79309068249414,"No 37, JALAN SL 1/3, BANDAR SUNGAI LONG kajang, Selangor, 43000, Malaysia"
CU,CU Sunway Giza,3.1508995072164896,101.59168819546247,"CU Sunway Giza, Sunway Giza, Jalan PJU 5/14, Kota Damansara, Petaling Jaya, selangor, 47800, Malaysia"
CU,CU Sutera Utama Skudai,1.5151432849418613,103.66978836002909,"NO. 127 (G FLOOR), JALAN SUTERA TANJUNG 8/2 TAMAN SUTERA UTAMA  Skudai, Johor, 81200, Malaysia"
CU,CU Taman Mergong Jaya,6.110898842374808,100.33572090187208,"CU Taman Mergong Jaya, No.188-G & 189-G, SSN, Taman, Persiaran Bandar Baru Mergong, Taman Mergong Jaya, Alor Setar, Kedah, 05150, Malaysia"
CU,CU Taman Pauh Jaya,5.370111178946342,100.41557409045747,"CU Taman Pauh Jaya, NO. B1-G-16, ELEVATE 1 LORONG PAUH JAYA 1, 3, Taman Pauh Jaya, Permatang Pauh, Penang, 13500, Malaysia"
CU,CU Taman Saujana Kajang,3.0141963077709457,101.45799350925083,"CU Taman Saujana, 1434, Jalan Sungai Jati, Taman Sentosa, klang, Selangor, 41200, Malaysia"
CU,CU Taman Sri Serdang,3.00855393726399,101.71419730769725,"CU Taman Sri Serdang, 3-1, Jalan 18/34, Sri Serdang, SERI KEMBANGAN, SELANGOR , 43300, Malaysia"
CU,CU Taman Tasik Commercial Centre Taiping,4.852840650496826,100.74574765020363,"CU Taiping, No.6 Commersial Centre TTCC off, Jalan Pekeliling, Taman Tasik Taiping,  Taiping, Perak, 34000, Malaysia"
CU,CU Tampin,2.463726576652006,102.23594891432623,"Ground floor of three (3) storey shoplot (corner lot) bearing postal address of PS 28, Jalan Bandar Satelit Sebang 1, Bandar Satelit Sebang, Seksyen 1,   ALOR GAJAH, MELAKA, 78000, Malaysia"
CU,CU Tanah Rata,4.472986004280622,101.38035561057005,"Magnolia Square, 11-1, Cameron Highlands, Tanah Rata, CAMERON HIGHLANDS, PAHANG, 39000, Malaysia"
CU,CU Teluk Intan,4.0198408860711945,101.02305785604224,"53 (GF), JALAN INTAN 4, BANDAR BARU TELUK INTAN,  TELUK INTAN , PERAK, 36000, Malaysia"
CU,CU Ten Kinrara,3.048068094900457,101.6463553412628,"CU Ten Kinrara, GF-07, Ten Kinrara Residence, Jalan BK 5a/3, Bandar Kinrara, puchong, Selangor, 47180, Malaysia"
CU,CU Terminal 5 Senai,1.6060794648221066,103.64786146086189,"CU Mart, 33-G, Jalan Terminal 5,  Senai, Johor, 81400, Malaysia"
CU,CU Thomson Hospital,3.1490627437497496,101.57877881515235,"GF, UNIT 1109-5 THOMSON HOSPITAL, 11 JALAN TEKNOLOGI PJU 5, KOTA DAMANSARA petaling jaya, selangor, 47810, Malaysia"
CU,CU Tropicana Aman Selangor,2.944712008898226,101.52739591385881,"NO. 9-G & 9-1, JALAN AMAN SINARIA 2 BANDAR TROPICANA AMAN   Teluk Panglima Garang, Selangor, 42500, Malaysia"
CU,CU Tun Mohd Fuad TTDI,3.141664944730027,101.6284486437522,"CU TTDI, 11, Jalan Tun Mohd Fuad, Taman Tun Dr Ismail,  Kuala Lumpur, Kuala Lumpur, 60000, Malaysia"
CU,CU UMT Kuala Nerus Terengganu,5.4071227598139675,103.0893248106907,"CU Mart UMT Kuala Terengganu, Kuala Terengganu, Terengganu, 21030, Malaysia"
CU,CU UTC Kota Bharu,6.1184157770440555,102.23988422774376,"LOT G1.01 & LOT G1.13, TINGKAT BAWAH BANGUNAN UTC KELANTAN, JALAN HAMZAH BANDAR KOTA BHARU, Kota Bharu, KELANTAN, 15050, Malaysia"
CU,CU UUM Sintok,6.462850029845793,100.50166904937223,"Sintok, Bangunan, Varsity Mall,  Universiti Utara Malaysia, Kedah, 06010, Malaysia"
